Name,Code,CA Agency Code,Address,City,State,Zip,Phone,Fax,Email,Brand,VanLineID
"NAVL Training Agency",2222222,,700 Oakmont Ln.,Westmont,IL,60559,6305700000,,test@test.com,NAVL,9
"AVL Training Agency",2222000,,700 Oakmont Ln.,Westmont,IL,60559,6305700000,,joseph.long@sirva.com,AVL,1
"North Coast Moving & Storage Company, LLC",0003000,,13045 S.E. 32nd Street,Bellevue,WA,98005,425-643-2100,425-644-2610,smorrow@ncoastallied.com,AVL,1
"A-1 Moving & Storage, Inc.",0005000,,706 Oak Lane,Rolla,MO,65401,573-364-2100,573-364-8359,info@a1moving.net,AVL,1
Whalen's Moving & Storage Co. LLC,0007000,,39 Kiscona Rd,Mount Kisco,NY,10549,914-241-2799,914-241-3148,rcolwell@movewhalens.com,AVL,1
ABC Moving and Storage Company,0008000,,12 Bockes Road,Hudson,NH,03051,603-881-9444,603-881-5793,todd@abcmoving.com,AVL,1
"ABC Relocation Services, Inc.",0008003,,241 Willard St.,Leominster,MA,01453,978-368-1023,978-368-7079,cheryl@abcmoving.com,AVL,1
ABC Moving & Storage,0008004,,75 Pinetree Industrial Park,Portland,ME,04102,207-228-0275,207-775-6198,info@abcmoving.com,AVL,1
"Advance Transportation Co., Inc.",0012000,,1445 North 32nd Street,Philadelphia,PA,19121,215-765-6500,215-236-6203,caroline.lavin@advancetrans.com,AVL,1
"Azalea Moving & Storage, Inc.",0016000,,7131 Bryhawke Circle,Charleston,SC,29418,843-767-4888,843-767-9691,josh@azaleamoving.com,AVL,1
"Allegheny Valley Transfer Co., Inc.",0017000,,1512 Lebanon Church Road,Pittsburgh,PA,15236,412-653-1200,412-892-2648,alleghenyallied@aol.com,AVL,1
"Ace Moving & Storage, Inc.",0019000,,1800 Industrial Circle,West Des Moines,IA,50265,515-225-6464,515-225-9812,chrisw@acemoving-storage.com,AVL,1
"Carey Moving & Storage of Knoxville, Inc.",0020000,,4013 Henson Rd.,Knoxville,TN,37921,865-862-4129,865-588-9381,knoxville@careymoving.com,AVL,1
"Carey Moving & Storage of Asheville, Inc.",0022000,,15 Weston Road Ext.,Arden,NC,28704,828-684-8575,828-687-9135,asheville@careymoving.com,AVL,1
American Household Storage Co.,0025000,,1665 Main Street,Buffalo,NY,14209,716-881-7000,716-883-0628,lisap@americanhh.com,AVL,1
Andy Anderson Van Lines,0031000,,4650 South Treadaway Blvd.,Abilene,TX,79602,325-695-1684,325-691-5089,hans.angermueller@colemanallied.com.,AVL,1
"Atlas Transfer & Storage Co., Inc.",0042000,3679,13026 Stowe Drive,Poway,CA,92064,858-513-3800,858-513-3900,sales@atlasallied.com,AVL,1
"Atlas Transfer & Storage Co., Inc.",0042002,3681,992 Rancheros Drive,San Marcos,CA,92069,760-745-2311,760-745-4771,sales@atlasallied.com,AVL,1
"A.B.C. Moving & Storage Co., Inc.",0047000,,9960 Buffalo Speedway,Houston,TX,77054,713-526-2341,713-526-8654,move@abcallied.com,AVL,1
"Astro Moving & Storage Co., Inc.",0049000,,30 Jefferson Avenue,Saint James,NY,11780,631-584-7700,631-584-8011,info@astromoving.com,AVL,1
Astro Law's Moving & Storage,0053000,,1100 - 17th Street,Vero Beach,FL,32960,772-562-6600,772-562-0103,tmorillo@alliedagent.com,AVL,1
"Apollo Moving & Storage, Inc.",0057000,,3014 New Butler Road,New Castle,PA,16101,724-658-9017,724-924-2551,apollomoving@aol.com,AVL,1
Golden Gate Moving and Storage,0077000,,5024 Forni Drive,Concord,CA,94520,925-676-2998,925-676-3074,jshurr@goldengatemoving.com,AVL,1
"Carey Moving & Storage of Charlotte, Inc.",0086000,,500 Corporate Blvd.,Rock Hill,SC,29730,803-324-3178,803-324-2189,charlotte@careymoving.com,AVL,1
"Griffin Moving & Storage Co., Inc.",0099000,,7051 S.W. 21st Place,Fort Lauderdale,FL,33317,954-473-5200,954-473-9266,griffinavl@aol.com,AVL,1
"Bailey Moving & Storage Co., Inc.",0101000,,200 S.W. Jackson St.,Topeka,KS,66603,785-232-0521,785-232-4125,smurphy@baileymoving.com,AVL,1
"Bailey Moving & Storage Co., Inc.",0101002,,810 Levee Drive,Manhattan,KS,66502,785-776-8844,785-776-0136,t.bailey@baileymoving.com,AVL,1
Bailey's Moving & Storage,0103000,,400 North 700 West,North Salt Lake,UT,84054,801-292-1466,801-298-4967,cyndib@baileysallied.com,AVL,1
Bailey's Moving & Storage,0103001,,1580 South State,Orem,UT,84058,801-225-4545,801-221-9104,philr@baileysallied.com,AVL,1
"Berger Transfer & Storage, Inc.",0104000,,501 Burning Tree Road,Fullerton,CA,92833,714-738-3044,714-738-6960,move@bergerallied.com,AVL,1
Bailey's Moving & Storage,0116000,3731,11755 E. Peakview Avenue,Englewood,CO,80111,303-799-1810,303-799-5148,nancy@baileysallied.com,AVL,1
Bailey's Moving & Storage,0116001,,2838 North El Paso,Colorado Springs,CO,80907,719-632-1539,719-632-5146,stephew@baileysallied.com,AVL,1
Behrens Moving Company,0119000,,500 West Rawson Avenue,Oak Creek,WI,53154,414-764-5900,414-764-5909,behrens@alliedagent.com,AVL,1
"Bertsch Moving and Storage Co., Inc.",0121000,,"900 McKinley Street, Unit B",Eugene,OR,97402,541-344-6257,541-344-6250,ariel@Bertsch-Allied.com,AVL,1
"Bertsch Moving and Storage Co., Inc.",0121001,,155 S.E. Lilly,Corvallis,OR,97330,541-754-0222,541-754-0225,dakon@bertsch-allied.com,AVL,1
"Bertsch Moving & Storage Co. of Salem, Inc.",0121002,,2155 Claxter Road N.E.,Salem,OR,97303,503-393-2125,503-393-2114,anna@bertsch-allied.com,AVL,1
Beverly Hills Transfer & Storage Co,0123000,,15500 South Main Street,Gardena,CA,90248,310-276-1121,310-538-0416,jgomez@beverlyhillstransfer.com,AVL,1
"Beverly Hills Transfer & Storage, Co., Inc.",0123001,,1919 Third Avenue,Los Angeles,CA,90018,310-532-1121,310-538-0416,bhtdispatch@beverlyhillstransfer.com,AVL,1
"Beverly Hills Transfer & Storage Co., Inc.",0123003,,15500 South Main Street Corporate Headquarters,Gardena,CA,90248,310-532-1121,310-538-0416,jgomez@beverlyhillstransfer.com,AVL,1
Blanchette Moving & Storage Co.,0135000,,32 Lexington Street,Lewiston,ME,04240,207-782-7429,207-782-1613,alliedofmaine@aol.com,AVL,1
"Bonded Transportation, Inc.",0144000,,301 South Myrick Street,Pensacola,FL,32505,850-438-4694,850-434-9053,jlong@bondedtrans.com,AVL,1
"Bonded Transportation, Inc.",0144001,,35 Hollywood Blvd.,Fort Walton Beach,FL,32548,850-244-4169,850-244-5230,broberts@bondedtrans.com,AVL,1
Bailey's Moving & Storage,0148000,3770,1257 Winters Avenue,Grand Junction,CO,81501,970-241-3636,970-241-2397,patt@baileysallied.com,AVL,1
"Brandon Transfer & Storage Co., Inc.",0150000,,2900 Tuxedo Avenue,West Palm Beach,FL,33405,561-683-5000,561-697-8991,gr8tmove@bellsouth.net,AVL,1
Carey Moving & Storage,0151000,,930 Monks Grove Road,Spartanburg,SC,29303,864-578-1400,864-578-1403,bcarey@careymoving.com,AVL,1
Central Van & Storage,0154000,,301 Jacobson Drive,Poca,WV,25159,304-755-1898,304-755-1910,mcastellano@centralvan.com,AVL,1
"Central Van & Storage, Inc.",0154001,,Rt. 2 Box 839,Shinnston,WV,26431,304-592-1760,304-592-5673,gpapa@centralvan.com,AVL,1
Central Van & Storage,0154002,,595 Meadowlands Blvd.,Washington,PA,15301,724-222-1101,724-225-0420,gpapa@centralvan.com,AVL,1
Compass Moving and Storage,0157000,,4655 Geneva Street,Denver,CO,80239,303-333-1090,303-329-6990,Able.Denver@GreatPlainsMoving.com,AVL,1
Compass Moving and Storage,0157001,,760 Ford Street,Colorado Springs,CO,80915,719-591-9330,719-597-3715,Able.Colosp@GreatPlainsMoving.com,AVL,1
"American Van Service, Inc.",0159000,,7704 West Geiger Blvd,Spokane,WA,99224,509-747-1111,509-835-3773,jason@americanvanservice.com,AVL,1
"Alliance Moving Systems, LLC",0163000,,375 Spring Buck Rd,Gypsum,CO,81637,970-328-6683,970-328-5083,andyalliance@aol.com,AVL,1
"Bay Shore Storage Warehouse, Inc.",0172000,,One Corporate Drive,Hauppauge,NY,11788,631-231-1313,631-231-1375,bbrooks@bayshoremoving.com,AVL,1
Belmont Moving Corp.,0173000,,2825 Maxx Road,Evansville,IN,47724,812-423-5425,812-423-5098,belmont1@evansville.net,AVL,1
"Berger Transfer & Storage, Inc.",0179000,,2950 Long Lake Road,Roseville,MN,55113,651-639-2260,651-639-2277,move@bergerallied.com,AVL,1
"Berger Transfer & Storage, Inc.",0179001,,1515 West Fullerton Avenue,Addison,IL,60101,630-620-1311,630-620-7514,move@bergerallied.com,AVL,1
"Berger Transfer and Storage, Inc.",0179002,,3720 Macalaster Drive,Minneapolis,MN,55421,651-639-2260,651-639-2277,move@bergerallied.com,AVL,1
Berger Transfer & Storage - Corporate Business Development Team,0179004,,1515 West Fullerton Avenue,Addison,IL,60101,651-639-2260,,marym@bergerallied.com,AVL,1
"Bayshore Transportation System, Inc.",0186000,,901 Dawson Drive,Newark,DE,19713,302-366-0220,302-366-8085,move@bayshoreteam.com,AVL,1
"Bayshore Transportation System, Inc.",0186001,,23000 Ladbrook Drive,Dulles,VA,20167,703-492-8900,703-661-3555,move1@bayshoreteam.com,AVL,1
"Baker Transfer & Storage Company, Inc.",0203000,,706 Daniel Street,Billings,MT,59101,406-245-3147,406-245-6608,larrymclellan@bresnan.net,AVL,1
"Daniel Moving & Storage Company, Inc.",0208000,,1001 North Magnolia Street,North Little Rock,AR,72114,501-375-8191,501-375-1075,dmd_3@sbcglobal.net,AVL,1
Berger Transfer & Storage,0210000,,3021 Mangum,Houston,TX,77092,713-688-0381,713-956-9871,move@bergerallied.com,AVL,1
Petoskey Moving Company,0212000,,1680 Clarion Avenue,Petoskey,MI,49770,231-347-2300,231-347-6676,fought@petoskeymoving.com,AVL,1
"Albuquerque Moving & Storage Co., Inc.",0215000,,5001 Paseo Del Norte NE,Albuquerque,NM,87113,505-823-1441,505-828-1846,galvarez@abqmoving.com,AVL,1
"Broadway Moving & Storage, Inc.",0226000,,"4205 South B St., Suite A",Stockton,CA,95206,209-337-0280,209-337-0291,paula@bmsionline.com,AVL,1
"Citizens Transfer & Storage Co., Inc.",0341000,,601 East 24th Street,Tucson,AZ,85713,520-623-6301,520-622-1137,mail@citizenstransfer.com,AVL,1
"Clancy's Transfer & Storage, Inc.",0348000,,841 North Sixth Avenue,Walla Walla,WA,99362,509-529-2022,509-529-6296,clancys@bmi.net,AVL,1
"Clancy's Transfer & Storage, Inc.",0348001,,1100 Columbia Park Trail,Richland,WA,99352,509-736-6683,509-735-8664,clancysallied@aol.com,AVL,1
Coakley Bros. Co.,0350000,,400 South 5th Street,Milwaukee,WI,53204,414-278-7060,414-278-8830,kkaufmann@coakleybros.com,AVL,1
Coakley Brothers,0350001,,2918 Agricultural Drive,Madison,WI,53718,414-278-7060,414-278-8830,slemke@coakleybrothers.com,AVL,1
"Colonial Van & Storage, Inc.",0356000,,214 South Broadway,Fresno,CA,93721,559-264-3025,559-264-7902,dj@colonialvan.com,AVL,1
"Colonial Van & Storage, Inc.",0356002,,6001 88th Street,Sacramento,CA,95828,916-381-1372,916-381-3783,dave@colonialvan.com,AVL,1
"Colonial Van & Storage, Inc.",0356003,,150 South Stanford Way,Sparks,NV,89431,775-352-8000,775-352-8007,danna@colonialvan.com,AVL,1
"Colonial Van & Storage, Inc.",0356004,,415 W. Third Street,Hanford,CA,93230,559-585-1902,559-264-7902,dj@colonialvan.com,AVL,1
"Cowboy Moving & Storage, Inc.",0363000,,104 Fetterman Street,Laramie,WY,82070,307-745-3325,307-745-8525,cowboymov@netscape.net,AVL,1
"Coleman American Moving Services, Inc.",0365000,,7280 Graham Road,Fairburn,GA,30213,770-306-8381,770-306-7258,leslie.murphy@colemanallied.com,AVL,1
"Coleman American Moving Services, Inc.",0375000,,109 Loftin Road,Dothan,AL,36303,334-792-1117,334-792-2865,dewey.jones@colemanallied.com,AVL,1
"Coleman American Moving Services, Inc.",0375001,,1200-A Ellis Road North,Jacksonville,FL,32254,904-786-1300,904-786-6003,edward.habicht@colemanallied.com,AVL,1
"Coleman American Moving Services, Inc.",0375002,,2200 E. 13th Street,Panama City,FL,32402,850-785-2070,850-784-8067,mark.johnson@colemanallied.com,AVL,1
"Coleman American Moving Services, Inc.",0375003,,1285 Parker Street,Montgomery,AL,36108,334-263-0585,334-264-6887,sonny.turner@colemanallied.com,AVL,1
"Coleman American Moving Services, Inc.",0375004,,193 Slaughter Road,Huntsville,AL,35807,256-837-2811,256-837-7577,mike.dyson@colemanallied.com,AVL,1
"Coleman American Moving Services, Inc.",0375005,,4520-A Cargo Drive,Columbus,GA,31907,706-641-7160,706-641-7158,randy.robinson@colemanallied.com,AVL,1
"Coleman American Moving Services, Inc.",0375006,,4880 F Street,Omaha,NE,68117,402-733-2560,402-733-5040,thomas.rothanzl@colemanallied.com,AVL,1
"Coleman American Moving Services, Inc.",0375007,,7280 Graham Road,Fairburn,GA,30213,770-306-8381,770-306-7258,brian.vick@colemanallied.com,AVL,1
"Coleman American Moving Services, Inc.",0375008,,#1 COVAN Drive,Midland City,AL,36350,334-983-6500,334-983-6716,sherri.alley@colemanallied.com,AVL,1
"Coleman American Moving Services, Inc.",0376000,,2711 Highway 17,Richmond Hill,GA,31324,912-756-2660,912-756-3264,beth.uhlig@colemanallied.com,AVL,1
"Coleman American Moving Services, Inc.",0376001,,15333 Farm Creek Dr.,Woodbridge,VA,22191,703-490-4910,703-490-4640,jon.coon@colemanallied.com,AVL,1
"Coleman American Moving Services, Inc.",0376002,,12905 Shawnee Mission Parkway,Shawnee,KS,66216,913-631-1440,913-631-5505,jason.christiansen@colemanallied.com,AVL,1
"Coleman American Moving Services, Inc.",0376003,,8220 Patuxent Range Road,Jessup,MD,20794,240-295-4420,240-295-4426,rick.disanti@covan.com,AVL,1
"Coleman American Moving Services, Inc.",0376004,,4003 Ft. Campbell Boulevard,Hopkinsville,KY,42240,270-885-8457,270-886-6432,robert.adams@colemanallied.com,AVL,1
"Coleman American Moving Services, Inc.",0376005,,114 W. Trinity Lane,Nashville,TN,37207,615-650-6644,615-650-0506,joe.grajewski@colemanallied.com,AVL,1
"Coleman American Moving Services, Inc.",0376006,,1427 Marvin Griff Road,Augusta,GA,30906,706-722-7726,706-724-3069,eric.mann@colemanallied.com,AVL,1
"Coleman American Moving Services, Inc.",0376007,,126 Booker Street,Warner Robins,GA,31093,478-922-2233,478-328-9392,ron.holt@colemanallied.com,AVL,1
"Coleman American Moving Services, Inc.",0379000,,2142 Joyce Dr.,Corpus Christi,TX,78417,361-851-0040,361-851-0381,jeff.macnutt@colemanallied.com,AVL,1
"Coleman American Moving Services, Inc.",0379001,,2120 - A Montevallo Rd.,Birmingham,AL,35211,205-942-0009,205-942-0059,brian.jolley@colemanallied.com,AVL,1
"Coleman American Moving Services, Inc.",0379002,,2160 South Hancock Expressway,Colorado Springs,CO,80910,719-634-0908,719-634-7020,tom.graver@@colemanallied.com,AVL,1
"Coleman American Moving Services, Inc.",0379003,,44553 S. Airport Rd,Hammond,LA,70403,985-365-0080,985-365-0085,cecily.haley@colemanallied.com,AVL,1
"Coleman American Moving Services, Inc.",0379004,,519 Highway 190,Valparaiso,FL,32580,850-678-2328,850-678-7654,william.haney@covan.com,AVL,1
"Coleman American Moving Services, Inc.",0379005,,"5235 Kooiman Road, Building 6-A",Theodore,AL,36582,251-653-3008,251-653-6144,joe.richardson@colemanallied.com,AVL,1
"Coleman American Moving Services, Inc.",0379006,,2000 U.S. Hwy 190 West Ste 104,Belton,TX,76513,254-939-9000,254-939-9282,jad.tawater@colemanallied.com,AVL,1
"Coleman American Moving Services, Inc.",0379007,,5819 Lexington Street,El Paso,TX,79924,915-755-5530,915-755-5541,david.buntyn@colemanallied.com,AVL,1
"Coleman American Moving Services, Inc.",0382000,,"1510 Corner Way Blvd., Ste. 113",San Antonio,TX,78219,210-822-0400,210-662-4136,coleman.medina@colemanallied.com,AVL,1
"Coleman American Moving Services, Inc.",0382002,,"10020 N. Palafox St., Suite A",Pensacola,FL,32534,850-262-1552,850-262-1555,rufus.green@colemanallied.com,AVL,1
"Coleman American Moving Services, Inc.",0382003,,"603 NorthparkCentral Drive, Suite 200",Houston,TX,77073,281-821-3183,281-443-7432,george.parrow@colemanallied.com,AVL,1
"Coleman American Moving Services, Inc.",0382004,,1001 Progress St.,Plano,TX,75074,972-881-9822,972-881-9833,dallas.tx@colemanallied.com,AVL,1
DunMar Moving Systems,0383000,,8030 Whitepine Road,Richmond,VA,23237,804-271-0500,804-271-6342,richmond@dunmar.com,AVL,1
DunMar Moving Systems,0383002,,"6501 Commonwealth Drive, S.W.",Roanoke,VA,24018,540-772-0712,540-772-2768,roanoke@dunmar.com,AVL,1
"Coleman American Moving Services, Inc.",0384000,,2105 Frank Albert Road,Fife,WA,98424,253-826-0220,253-826-0030,tracey.pidge@colemanamerican.com,AVL,1
"Coleman American Moving Services, Inc.",0384001,,717 E. Ship Creek Drive,Anchorage,AK,99501,907-276-3506,907-258-3986,lachelle.stewart@alliedalaska.com,AVL,1
"Coleman American Moving Services, Inc.",0384002,,1900 Livengood Avenue,Fairbanks,AK,99701,907-452-4118,907-452-5233,jenniferl@aaa-moving.com,AVL,1
"Coleman American Moving Services, Inc.",0384003,,5350 Shaune Drive,Juneau,AK,99801,907-780-4374,907-780-3672,phil@aaa-moving.com,AVL,1
"Coleman American Moving Services, Inc.",0384004,,11590 Rezanof West,Kodiak,AK,99615,907-487-2140,907-487-4999,geri@aaa-moving.com,AVL,1
"Coleman American Moving Services, Inc.",0384006,,94 Kelly Drive,Ward Cove,AK,99928,907-225-5551,907-225-0322,john@aaa-moving.com,AVL,1
"Coleman American Moving Services, Inc.",0384007,,5218 Halibut Pt. Road,Sitka,AK,99835,907-747-7281,,john@aaa-moving.com,AVL,1
"Coleman American Moving Services, Inc.",0385000,,140 Brynn Marr Road,Jacksonville,NC,28546,910-346-2667,910-346-1921,robert.ambrose@colemanallied.com,AVL,1
"Coleman American Moving Services, Inc.",0385001,,"10015 Waples Court, Suite A",San Diego,CA,92121,858-658-0709,858-558-3765,matthew.grimes@colemanallied.com,AVL,1
"Coleman American Moving Services, Inc.",0385002,,9262 NW 101 Street,Medley,FL,33178,305-514-0501,305-805-2201,ken.nargi@colemanallied.com,AVL,1
"Coleman American Moving Services, Inc.",0385003,,715 Whitfield St.,Fayetteville,NC,28306,910-433-3031,910-433-0921,gary.adams@colemanallied.com,AVL,1
"Coleman American Moving Services, Inc.",0385004,,3107 Neuse Blvd.,New Bern,NC,28560,252-638-1384,252-638-3256,shanell.mccord@colemanallied.com,AVL,1
"Coleman American Moving Services, Inc.",0385005,,2115 SW 6th Street,Lawton,OK,73502,580-355-6626,580-355-4820,wade.roth@colemanallied.com,AVL,1
"Coleman American Moving Services, Inc.",0385006,,5925 Corporation Drive,Manhattan,KS,66503,785-537-7692,785-537-7704,chris.hamam@covan.com,AVL,1
"Coleman American Moving Services, Inc.",0387000,,2822 Commerce Drive,Columbia,SC,29205,803-771-6400,803-252-0135,mark.schettler@colemanallied.com,AVL,1
"Coleman American Moving Services, Inc.",0387001,,511 N. Pike East,Sumter,SC,29150,803-773-8340,803-775-6922,sean.pressley@colemanallied.com,AVL,1
Coleman American Moving Services,0387003,,6825 N.W. 16 Terrrace,Fort Lauderdale,FL,33309,954-974-7700,334-983-6700,cams60@colemanamerican.com,AVL,1
Coleman American Moving Services,0387004,,"4317 Fortune Place., Suite A",Melbourne,FL,32904,321-952-4300,321-952-4900,debbie.lane@colemanallied.com,AVL,1
Coleman American Moving Services,0387005,,61 Basil Sawyer Drive,Hampton,VA,23666,757-827-6225,757-827-6181,ricky.banks@colemanallied.com,AVL,1
Columbine Moving & Storage,0389000,,411 Airport Business Center,Aspen,CO,81611,970-925-2201,970-925-9558,bortmann@columbinemoving.com,AVL,1
Columbine Moving & Storage,0389001,,0930 Chambers Avenue,Eagle,CO,81631,970-328-2008,970-328-2009,chipole@columbinemoving.com,AVL,1
Berger Dallas,0396000,,14850 Grand River Road,Fort Worth,TX,76155,817-799-3000,817-799-3049,move@bergerallied.com,AVL,1
Berger Transfer and Storage,0396001,,15415 Long Vista Drive,Austin,TX,78728,512-834-7777,512-834-0539,move@bergerallied.com,AVL,1
Berger Transfer & Storage Inc.,0396002,,17327 Green Mountain Road Suite 108,San Antonio,TX,78247,210-507-9101,210-507-9157,move@bergerallied.com,AVL,1
Berger Phoenix,0400000,,602 S. 54th Avenue,Phoenix,AZ,85043,602-254-7181,602-243-0123,move@bergerallied.com,AVL,1
Berger Transfer & Storage,0400002,,600 E. Cheyenne Ave.,Las Vegas,NV,89030,702-399-9913,702-399-6616,,AVL,1
Berger Transfer & Storage,0403000,3379,5115W. Clifton St.,Tampa,FL,33634,813-885-6771,813-884-4921,tampabaymovingsystems@bergerallied.c,AVL,1
"Circle Moving & Storage, Inc.",0406000,,3333 East Willow Street,Long Beach,CA,90806,562-424-0451,562-424-6312,circlemoving@circlemoving.com,AVL,1
"Central-Herrin Storage & Transfer Co., Inc.",0409000,,1305 Marshall Street,Shreveport,LA,71101,318-221-5135,318-221-4194,mail@central-herrin.com,AVL,1
"Clemmer Moving & Storage, Inc.",0415000,,425 Schoolhouse Road,Telford,PA,18969,215-723-5515,215-723-1535,sslingsby@clemmermoving.com,AVL,1
"Clemmer Moving & Storage, Inc.",0415004,,425 Schoolhouse Rd.,Telford,PA,18969,215-723-5515,,psadler@clemmermoving.com,AVL,1
"Clover International Movers, LLC",0418000,,1910 N.W. 97th Ave.,Miami,FL,33172,305-436-8032,305-499-7047,mabel.olivera@clovergroup.com,AVL,1
"Champion Moving & Storage, Inc.",0422000,,100 Owens Road,Brockport,NY,14420,585-235-3500,585-235-2105,cmsinc@choiceonemail.com,AVL,1
NOR-CAL Moving Services,0556000,,2001 Marina Boulevard,San Leandro,CA,94577,510-357-7111,510-357-6111,pjmazzetti@nor-calmoving.com,AVL,1
NOR-CAL Moving Services,0556001,,680 85th Ave,Oakland,CA,94621,415-330-2800,510-957-0365,pjmazzetti@nor-calmoving.com,AVL,1
NC Texas Moving Services,0556003,,9010 West Little York Rd.,Houston,TX,77040,713-983-8047,713-983-8549,pjmazzetti@nctmoving.com,AVL,1
"Excel Moving and Storage, Inc.",0610000,,2612 Discovery Drive,Raleigh,NC,27616,919-873-9235,919-873-9254,moveinfo@excelms.com,AVL,1
"Excel Moving & Storage of Greensboro, Inc.",0610001,,306 Concord Street,Greensboro,NC,27406,336-299-2003,336-299-0023,dstaley@excelms.com,AVL,1
Excel Moving and Storage of Charleston,0610002,,7143 Bryhawke Circle,Charleston,SC,29418,843-654-7770,843-654-7790,rpeirce@excelms.com,AVL,1
Emrick's Van & Storage Co.,0612000,,3126 South Van Buren,Enid,OK,73703,580-234-5736,580-242-8050,emricksenid@emricksallied.com,AVL,1
Emrick's Van & Storage Co.,0612001,,4021 - 25 N.W. 3rd,Oklahoma City,OK,73107,405-946-4472,405-946-4430,emricksokc@emricksallied.com,AVL,1
"Piepho Moving & Storage, Inc.",0617000,,1300 Oak Forest Drive,Onalaska,WI,54650,608-783-3400,608-781-5126,doug@piepho.com,AVL,1
Dunmar Moving Systems,0623000,,130 South Military Highway,Norfolk,VA,23502,757-461-8888,757-461-5192,norfolk@dunmar.com,AVL,1
Berger Transfer & Storage,0626000,,9770 Inter Ocean Drive,Cincinnati,OH,45246,513-874-4800,513-341-2169,move@bergerallied.com,AVL,1
Eldredge & Bourne Moving & Storage,0627000,,538 Bearses Way,Hyannis,MA,02601,508-775-1050,508-790-2456,jgoode@eldredgebourne.com,AVL,1
Berger Atlanta Movers,0632000,,750 Progress Industrial Boulevard,Lawrenceville,GA,30043,770-962-6600,770-339-0075,move@bergerallied.com,AVL,1
American Moving Services,0636000,,1324 East 44th Street,Lubbock,TX,79404,806-747-4472,806-747-8417,americanmoving@nts-online.net,AVL,1
Berger Transfer & Storage,0640000,,"10350 Nations Ford Road, Suite Y",Charlotte,NC,28273,704-587-1100,704-588-4201,move@bergerallied.com,AVL,1
Berger Transfer & Storage,0644000,,3410 Robards Court,Louisville,KY,40218,502-301-8100,502-301-8119,move@bergeralllied.com,AVL,1
"John Fayard Moving & Warehousing, L.L.C.",0704000,,10323 Express Dr.,Gulfport,MS,39505,228-864-2262,228-864-1450,vanessac@johnfayardwarehouse.com,AVL,1
Federal Warehouse Company,0713000,,101 National Road,East Peoria,IL,61611,309-694-4500,309-698-8848,peoria@federalcos.com,AVL,1
Federal/O'Byrne Moving & Storage,0713002,,401 W. Kenyon Road,Champaign,IL,61820,217-352-5123,217-352-4411,champaign@federalcos.com,AVL,1
"Findlay Moving & Storage, Inc.",0716000,,326 South Fulton Avenue,Mount Vernon,NY,10553,914-699-1100,914-699-1166,cathy@findlaymoving.com,AVL,1
Berger Transfer & Storage,0717000,,1111 Milepost Drive,Columbus,OH,43228,614-347-5970,614-347-5998,move@bergerallied.com,AVL,1
Berger Transfer & Storage,0720000,,8649 S. Freeway Dr.,Macedonia,OH,44056,330-468-7600,330-468-7639,move@bergerallied.com,AVL,1
Forest Moving & Storage,0727000,,1700 Brinson Street,De Ridder,LA,70634,337-239-9555,337-462-2405,reesemd@wnonline.net,AVL,1
Forest Moving & Storage,0727001,,1203 University Parkway,Leesville,LA,71446,337-239-6033,337-239-0146,jwells@worldnetla.net,AVL,1
Lansing Moving,0729000,,2888 South Creyts Road,Lansing,MI,48917,517-322-2234,517-322-0093,jmherrick@alliedagent.com,AVL,1
Federal/Gateway Moving & Storage,0742000,,1975 Walton Road,Overland,MO,63114,314-429-3300,314-429-5925,stlouis@federalcos.com,AVL,1
"TFC, Inc. (affiliated with/Federal Peoria)",0742007,,1975 Walton Road,Overland,MO,63114,309-694-4500,,brad.adams@federalcos.com,AVL,1
Federal/Johnson Moving & Storage,0743000,,2035 East Olive,Decatur,IL,62526,217-429-4131,217-422-3366,decatur@federalcos.com,AVL,1
"Farley Brothers of Lancaster, Inc.",0748000,,334 East Avenue K-4,Lancaster,CA,93535,661-948-4541,661-948-4544,farleybroslancaster@gmail.com,AVL,1
Federal/Johnson Moving & Storage,0754000,,2021 Eagle Road,Normal,IL,61761,309-452-6333,309-452-6455,bloomington@federalcos.com,AVL,1
"Federal Van Lines, Inc.",0756000,,320 Taunton Avenue,East Providence,RI,02914,401-434-4410,401-434-6420,rimover@aol.com,AVL,1
O'Brien's-Glose Moving & Storage,0817000,,7066 Snowdrift Rd,Allentown,PA,18106,610-391-8311,610-391-0311,admin@obriens-moving.com,AVL,1
O'Brien's Moving & Storage,0817003,,130 Redners Way,Leesport,PA,19533,610-391-8300,610-391-0311,admin@obriens-moving.com,AVL,1
Stuart Moving Services,0844000,,3160 S. E. Dixie Highway,Stuart,FL,34997,772-223-6683,772-287-6027,ggms@bellsouth.net,AVL,1
"Grand Strand Moving & Storage, LLC",0845000,,141 E. Coxes Ferry Road,Conway,SC,29526,843-234-1181,843-347-2541,grandstrand_mvg@yahoo.com,AVL,1
"General Warehouse Co., Inc.",0852000,,1812 Mascaro Lane,Port Royal,SC,29935,843-524-7545,843-524-7380,mail@gwcmoves.com,AVL,1
Callan & Woodworth Moving & Storage,0918000,,900 Highway 212,Michigan City,IN,46360,219-874-3274,219-872-0776,diana@callanmoving.com,AVL,1
Callan & Woodworth Moving & Storage,0918001,,5489 Red Arrow Highway,Stevensville,MI,49127,269-428-2118,269-428-2191,jim@callanmoving.com,AVL,1
Callan & Woodworth Moving & Storage,0918002,,1865 North Kenmore,South Bend,IN,46628,574-233-1111,574-968-5095,jim@callanmoving.com,AVL,1
Callan & Woodworth Moving & Storage,0918003,,2510 Lansing Avenue,Jackson,MI,49202,517-787-9330,517-787-3355,dorean@callanmoving.com,AVL,1
Callan & Woodworth Moving & Storage,0918004,,4808 Kroemer Rd.,Fort Wayne,IN,46818,260-469-0226,219-872-0776,jim@callanmoving.com,AVL,1
"Hazelwood Transfer & Storage, Inc.",0921000,,1222 Cravens Lane,Carpinteria,CA,93013,805-963-4493,805-566-6650,mail@hazelwoodallied.com,AVL,1
"Hazelwood Transfer & Storage, Inc.",0921001,,4129 State Street,Santa Barbara,CA,93110,805-684-4000,805-566-6650,mail@hazelwoodallied.com,AVL,1
"Hilford Moving & Storage, Inc.",0930000,,1595 South Arundell Avenue,Ventura,CA,93003,805-642-0221,805-642-0922,movingmgr@aol.com,AVL,1
Hillier Storage & Moving Co.,0931000,,2728 South 11th Street,Springfield,IL,62703,217-525-8550,217-525-8557,hsmhhg@hillierstg.com,AVL,1
Hinchey Moving & Storage,0948000,,821 Enterprise Street,Dickson City,PA,18704,570-558-0134,570-714-9902,warehouse@epix.net,AVL,1
"Simonik Transportation & Warehousing Group, LLC",1020000,,122 Kissel Road,Burlington,NJ,08016,856-234-1068,856-234-1069,sales@simonikallied.com,AVL,1
Jobbers Moving & Storage Co.,1120000,,1200 Industrial Drive,Bismarck,ND,58501,701-222-1111,701-255-3176,jobbers@jobberswarehouse.com,AVL,1
Jobbers Moving & Storage Co.,1120002,,1330-40th Streeet North,Fargo,ND,58102,701-356-8080,701-356-8082,jobbers@jobberswarehouse.com,AVL,1
Jobbers Moving & Storage Co.,1120003,,4400 North Broadway,Minot,ND,58703,701-837-1111,701-837-7986,jobbers@jobberswarehouse.com,AVL,1
Jobbers Moving & Storage Co.,1120004,,315 N Brown County 19,Aberdeen,SD,57401,605-225-4650,605-225-4651,jobbers@jobberswarehouse.com,AVL,1
"Price-Coomer Relocation Services, Inc.",1128000,,2245 Frankfort Court,Lexington,KY,40510,859-233-1538,859-231-0978,jennifer@pricecoomer.com,AVL,1
"J.D. Carton & Son, Inc.",1130000,,125 East Halsey Road,Parsippany,NJ,07054,973-781-1600,973-386-1694,briancarton@jdcarton.com,AVL,1
Heartland Moving & Storage,1212000,,2111 Industrial,Wichita,KS,67216,316-554-0224,316-524-0599,etegarden@kingms.com,AVL,1
"Kent Moving & Storage, Inc.",1245000,,4195 East Paris SE,Grand Rapids,MI,49512,616-532-0000,616-698-0006,kent12450@aol.com,AVL,1
"Lanigan Worldwide Moving & Warehousing, Inc.",1305000,,1870 Airways Boulevard,Memphis,TN,38114,901-744-7070,901-744-7011,llanigan@alliedagent.com,AVL,1
"Lincoln Storage, Inc.",1329000,,315 East First Street,Dayton,OH,45402,937-223-8165,937-223-1468,tholley@lincolnallied.com,AVL,1
"Lane's Moving & Storage, Inc.",1345000,,245 East Murphy Street,Lima,OH,45801,419-228-3624,419-222-6350,lanemove@woh.rr.com,AVL,1
"La Mesa Transfer & Storage, Inc.",1349000,,8336 Case Street,La Mesa,CA,91942,619-463-9395,619-463-1916,dave@lamesaallied.com,AVL,1
"Liffey Van Lines, Inc.",1355000,,234 East 121st Street,New York,NY,10035,212-410-3500,212-410-5186,roy@liffeyvan.com,AVL,1
"M & L Transfer & Storage Co., Inc.",1400000,,209 South Arthur Street,Amarillo,TX,79102,806-374-5261,806-374-5264,mlallied@yahoo.com,AVL,1
"Maher Bros. Transfer & Storage, Inc.",1404000,,2470 South Riverside Drive,Iowa City,IA,52246,319-337-9696,319-351-3349,pltomash@maherbros.com,AVL,1
Maher Bros. Transfer & Storage,1404001,,370 - 50th Avenue Dr. S.W.,Cedar Rapids,IA,52404,319-364-7777,319-364-3920,pmstowell@maherbros.com,AVL,1
Maher Bros. Transfer & Storage,1404002,,7312 Hancock Ct.,Davenport,IA,52806,563-388-6663,563-388-6666,samalasto@maherbros.com,AVL,1
"Madison Moving and Storage, Inc.",1405000,,825 East Washington Avenue,Madison,WI,53703,608-255-7357,608-257-5493,madisonmvg@aol.com,AVL,1
"Martin Storage Company, Inc.",1412000,,701 Pennsylvania Avenue,Hagerstown,MD,21742,301-739-6200,301-797-3226,martinstorage@prodigy.net,AVL,1
Marysville Van & Storage Co.,1413000,,901 Von Geldern Way,Yuba City,CA,95991,530-674-9600,530-674-1967,mrysvl@sbcglobal.net,AVL,1
"Nelson Markesbery Moving & Storage, Inc.",1416000,,7370 Industrial Road,Florence,KY,41042,859-371-8111,859-371-8657,scottmwarner@insightbb.com,AVL,1
"Southern Heritage Transfer & Storage, Inc.",1420000,,210 Industrial Drive,Jackson,MS,39209,601-948-5558,601-948-5547,southernheritag@bellsouth.net,AVL,1
"McNaughton Bros., Inc.",1423000,,140 Old Route 119 Hwy. South,Indiana,PA,15701,724-463-3571,724-463-0187,LShively@mcnaughtonallied.com,AVL,1
"McNaughton Bros., Inc.",1423001,,288 Cramer Pike,Johnstown,PA,15901,814-535-6714,814-536-1614,bshively@mcnaughtonallied.com,AVL,1
McNaughton Latrobe Moving,1423002,,"2018 Main Drive, Building D-11",Latrobe,PA,15650,724-537-4358,724-537-7464,tshively@mcnaughtonallied.com,AVL,1
"Main Street Transfer and Storage Co., Inc.",1424000,,4649 Shallowford Road,Chattanooga,TN,37411,423-855-0040,423-899-3049,mainstreettransfer@comcast.net,AVL,1
"Henry L. Meyers Moving & Storage, Inc.",1433000,,1621 - 11th Avenue,Port Huron,MI,48060,810-982-0149,810-982-0249,hlmeyers@advnet.net,AVL,1
"Morse Moving & Storage, Inc.",1461000,,"10049 Harrison Road, Suite 500",Romulus,MI,48174,734-484-1717,734-485-8748,jgreen@morsemoving.com,AVL,1
"Morse Moving & Storage, Inc.",1461001,,2040 Traversefield Drive,Traverse City,MI,49686,231-947-7650,231-929-4607,wwahr@morsemoving.com,AVL,1
"Morse Moving & Storage, Inc.",1461002,,"10049 Harrison Road, Suite 500",Romulus,MI,48174,734-484-1717,734-485-8748,jgreen@morsemoving.com,AVL,1
Morse Moving & Storage Mt. Pleasant,1461003,,2374 Parkway Dr.,Mount Pleasant,MI,48858,989-772-2824,989-772-9391,dlewis@morsemoving.com,AVL,1
Morse Moving & Storage,1461004,,4219 S. High School Road,Indianapolis,IN,46241,317-856-1700,317-856-1710,amilner@morsemoving.com,AVL,1
"Muskogee Transfer & Storage Co., Inc.",1462000,,319 South 4th Street,Muskogee,OK,74401,918-682-1337,918-683-1991,rachael@mtasc.com,AVL,1
"Mercury Transfer & Warehouse, Inc.",1463000,,727 W. Ridgecrest Blvd.,Ridgecrest,CA,93555,760-375-5666,760-375-3317,mercury.movers@verizon.net,AVL,1
"Mee's Moving & Storage, Inc.",1469000,,2561 Grennan Court,Rancho Cordova,CA,95742,916-635-8262,916-635-0323,mark@meemoving.com,AVL,1
"Mills Van Lines, Inc.",1470000,,14675 Foltz Industrial Parkway,Strongsville,OH,44136,440-846-0200,440-846-0606,rsimon@millsvanlines.com,AVL,1
Monro Moving & Storage Company,1480000,,1809 Wylds Road,Augusta,GA,30909,706-737-8374,706-737-3011,lmonro@bellsouth.net,AVL,1
"Moloney Moving Systems, Inc.",1495000,,429 Stillwater Road,Mahopac,NY,10541,845-628-5500,212-410-5186,roy@liffeyvan.com,AVL,1
Traditional Moving & Storage,155,155,830 Athabasca Street,Thunder Bay,ON,P7C 3E6,807-623-3535,807-623-3140,tbaymove@tbaytel.net,AVL,1
National Storage Co.,1602000,,628 Second Street,Kalamazoo,MI,49007,269-345-6111,269-382-6893,natlsto@aol.com,AVL,1
North Western Warehouse Company,1613000,,417 Pine Street,Rapid City,SD,57701,605-342-1460,605-342-1744,nww@northwesternwarehouse.com,AVL,1
NOR-CAL Moving Services,1631000,,560 Trimble Road,San Jose,CA,95131,408-954-1175,408-954-1039,pjmazzetti@nor-calmoving.com,AVL,1
Winders Moving & Storage,169,169,142 4th Avenue West,Battleford,SK,S0M 0E0,306-445-6211,306-445-2001,bbeaudry@countrywidemoving.net,AVL,1
Oil Capitol Relocation,1702000,,2900-B North Hemlock Circle,Broken Arrow,OK,74012,918-258-4900,918-251-4596,tulsa@oilcapitolrelocation.com,AVL,1
Dixon Van Lines,1746000,9,1050 Brydges Street,London,ON,N5W 2B4,519-659-9933,519-453-8160,trlondon@tippet-richardson.com,AVL,1
Chase Moving and Storage,1753000,,165 Shunpike Road,Williston,VT,05495,802-864-4556,802-864-7499,ron@chaseallied.com,AVL,1
"Alliance Moving, Inc.",1765000,063,6-3rd Avenue,Wabush,NL,A0R 1B0,709-282-2022,819-478-5537,franco@demenagement-drummond.ca,AVL,1
Demenagement De La Cote-nord,1766000,64,180 Portage Des Mousses,Port Cartier,QC,G5B 2G7,418-766-4200,,franco@demenagement-drummond.ca,AVL,1
"Johnson Moving & Storage, Ltd.",1768000,125,15 Lansdowne Street,Campbellton,NB,E3N 2L5,506-789-1995,506-753-7590,johnson_moving@yahoo.com,AVL,1
Peasley Transfer & Storage Co.,1808000,,111 North Curtis Road,Boise,ID,83706,208-375-0961,208-376-3447,peasleyts@mindspring.com,AVL,1
Pickens-Kane Moving & Storage Co.,1815000,,410 North Milwaukee Avenue,Chicago,IL,60610,312-942-0330,630-351-2972,solutions@pickenskane.com,AVL,1
Pickens-Kane Moving & Storage,1815007,,303 Munroe Avenue,Bloomingdale,IL,60108,630-924-4400,630-351-2972,solutions@pickenskane.com,AVL,1
Hampden Moving & Storage,1817000,,1304 Continental Drive,Abingdon,MD,21009,410-235-0600,,mack.kean@vonparis.com,AVL,1
Prestige Moving and Storage Co.,1828000,,7930 S.W. Burns Way; Suite A,Wilsonville,OR,97070,503-682-8832,503-682-8872,mlarsen@prestigemoving.com,AVL,1
Prestige Moving & Storage,1828001,,1006 SW EmKay Drive,Bend,OR,97702,541-383-3362,541-383-4120,jason@prestigebend.com,AVL,1
The Moving Company,1830000,,3200 W. Picacho Avenue,Las Cruces,NM,88007,575-524-7768,575-523-4644,themovco@aol.com,AVL,1
"Simonik Moving & Storage, Inc.",1834000,,5E Easy Street,Bound Brook,NJ,08805,732-560-5707,732-560-5727,sales@simonikmoves.com,AVL,1
Pool's Moving & Storage,1838000,,340 Minerva Street,Turlock,CA,95380,209-668-2331,209-668-2332,movinchick@aol.com,AVL,1
TR Westcan Inc.,1839000,166,8035 N. Fraser Way,Burnaby,BC,V5J 5M8,604-324-5015,604-324-2047,trvancouver@tippet-richardson.com,AVL,1
"TR Westcan, Inc.",1839002,164,2905 - 37th Avenue N.E.,Calgary,AB,T1Y 5Z9,403-299-9700,403-299-9750,trcalgary@tippet-richardson.com,AVL,1
All Points Pioneer,1864000,,"2450 114th Street, Suite 290",Grand Prairie,TX,75050,817-275-6888,817-275-7847,admin@allpointsallied.com,AVL,1
Ryan Moving & Storage of Erie,1874000,,1901 Myrtle Street,Erie,PA,16502,814-455-0991,814-456-4308,ryanerie@aol.com,AVL,1
Quincy Storage & Transfer Co.,1901000,,2925 Wismann Lane,Quincy,IL,62301,217-222-1144,217-222-6151,jerryh@quincystg.com,AVL,1
"Santiego Worldwide, Inc.",1908000,,614 Corporate Way,Valley Cottage,NY,10989,845-268-4200,845-268-4231,giulio@santiegomoving.com,AVL,1
Slidell Moving,1914000,,120 Production Drive,Slidell,LA,70460,985-863-9916,985-641-4340,stevenfisk@bellsouth.net,AVL,1
Fox & Ginn Movers and Warehousing,1928000,,105 Godsoe Road,Bangor,ME,04401,207-947-0183,207-942-1444,pquimby@midmaine.com,AVL,1
Fowler Moving,1936000,152,982 Carson Pit Road,Quesnel,BC,V2J 7H2,250-991-0252,250-991-0255,fowlermoving@telus.net,AVL,1
The Ideal Move Ltd.,1953000,,35 Railroad Ave.,Albany,NY,12205,518-459-0800,518-489-6268,clasch@idealallied.com,AVL,1
Monarch Moving Systems,1963000,315,25 Metropolitan Road,Scarborough,ON,M1R 2T5,905-820-6800,905-820-6805,martin@monarchmoving.com,AVL,1
"Hansen Bros. Transfer & Storage Co., Inc.",1966000,,6860 Coal Creek Parkway S.E.,Newcastle,WA,98059,425-255-1451,425-255-1030,djedlicka@hansenbros.com,AVL,1
"Hansen Bros. Transfer & Storage Co., Inc.",1966001,,10750 Aurora Ave. N.,Seattle,WA,98133,206-365-8183,206-365-1262,rlarsen@hansenbros.com,AVL,1
"Hansen Bros. Transfer & Storage Co., Inc.",1966002,,2902 Lincoln Way,Lynnwood,WA,98087,425-776-0176,425-744-0861,jmueting@hansenbros.com,AVL,1
"Rudolph Transfer and Storage Company, LLC",1970000,,520 S. Spring St.,Clarksville,TN,37040,931-647-3542,931-552-0044,rudolphtransfer@att.net,AVL,1
Lewis Cartage and Storage Ltd.,1976000,278,785 Lampson Street,Victoria,BC,V9A 6A9,250-383-9027,250-381-2124,rickgreaves@shaw.ca,AVL,1
Best Moving & Storage Corp.,1980000,,1025 Collier Center Way,Naples,FL,34110,239-592-6565,239-594-2657,bestallied@mindspring.com,AVL,1
"Fox Hollow Movers, LLC",1983000,,799 E. Hiawatha Blvd.,Syracuse,NY,13208,315-422-4813,315-422-4815,syracuse@foxhollowmovers.com,AVL,1
"Fox Hollow Movers, LLC",1983002,,18841 US Route 11,Watertown,NY,13601,315-788-7870,315-788-7877,ffox@foxhollowmovers.com,AVL,1
"Wakefield Moving & Storage, Inc.",1988000,,388 Newburyport Turnpike,Rowley,MA,01969,978-531-8095,978-531-8145,rgoulding@wakefieldmoving.com,AVL,1
Olympian Worldwide Moving and Storage,1995000,,2225 S. 43rd Avenue,Phoenix,AZ,85009,602-269-2225,602-269-1215,tdavidson@moveolympian.com,AVL,1
"Reebie Storage and Moving Company, Inc.",2007000,,10423 W. Franklin Ave.,Franklin Park,IL,60131,847-994-8000,847-288-0278,smanso@reebieallied.com,AVL,1
"Reebie Storage and Moving Company, Inc.",2007001,,2325 North Clark Street,Chicago,IL,60614,773-549-0120,847-288-0278,smanso@reebieallied.com,AVL,1
"Reebie Storage and Moving Company, Inc.",2007002,,740 Frontenac,Naperville,IL,60563,847-994-8000,630-420-7476,grichied@reebieallied.com,AVL,1
"Rocky Mountain Moving & Storage, Inc.",2011000,,1750 Idaho Street,Missoula,MT,59801,406-728-2116,406-549-4356,moveit@montana.com,AVL,1
"Reliable Van & Storage Co., Inc.",2013000,,550 Division Street,Elizabeth,NJ,07201,908-352-5300,908-352-9833,d_miller@reliablevan.com,AVL,1
Express Moving & Storage,2017000,,3818 Buck Owens Blvd.,Bakersfield,CA,93308,661-325-0162,661-323-3186,expressmovingllc@att.net,AVL,1
Rochester Transfer & Storage,2025000,,4121 Highway 14 West,Rochester,MN,55901,507-289-4515,507-289-3513,jeff@piepho.com,AVL,1
"Piepho Moving & Storage, Inc.",2025002,,777 Industrial Road,Mankato,MN,56001,507-625-2814,507-625-7841,mark@piepho.com,AVL,1
"Piepho Moving & Storage, Inc.",2025003,,"2995 Lone Oak Circle, Suite 7",Eagan,MN,55121,651-688-7076,651-688-7156,jason@piepho.com,AVL,1
"Roche Moving & Storage, Inc.",2026000,,857 Lindsay Boulevard,Idaho Falls,ID,83402,208-522-7233,208-522-0882,chadrose@cableone.net,AVL,1
M.F. Rockey Moving Co.,2027000,,2 Laurel Lane,New Cumberland,PA,17070,717-932-4906,717-932-4920,mfrockey@aol.com,AVL,1
"Rogovin Moving & Storage Co., Inc.",2030000,,354 Colman Street,New London,CT,06320,860-443-8423,860-442-8478,rogovinmoving@snet.net,AVL,1
Gerber Moving & Storage,2032000,,2222 S. 138th Street,Bonner Springs,KS,66012,913-441-8550,913-441-8552,mgerber@gerbermoving.com,AVL,1
"Ryan Moving & Storage, Inc. of Pittsburgh",2035000,,185 Colonial Manor Road,Irwin,PA,15642,724-864-6800,724-864-4062,camay@ryanmoving.com,AVL,1
"Red's Transfer & Storage, Inc.",2051000,,"619 Lincoln Avenue, N.E.",Saint Cloud,MN,56304,320-251-2833,320-251-1831,info@redstransfer.com,AVL,1
"Rose Moving & Storage Co., Inc.",2059000,,"41775 Ecorse Rd., Suite 190",Belleville,MI,48111,734-957-8000,734-957-1208,agent@rosemoving.com,AVL,1
Federal/Whalen Moving & Storage,2102002,,2341 Ernie Krueger Circle,Waukegan,IL,60087,847-336-6250,847-336-6296,waukegan@federalcos.com,AVL,1
Federal/Whalen Moving & Storage,2102003,,4630 South Brust Ave. Suite 300,Saint Francis,WI,53235,414-716-6683,414-716-6687,milwaukee@federalcos.com,AVL,1
Schick Moving & Storage Co.,2110000,,2721 Michelle Drive,Tustin,CA,92780,714-731-5500,714-669-4220,schick@schickusa.com,AVL,1
"Skaleski Moving & Storage, Inc.",2111000,,911 Goddard Way,Green Bay,WI,54311,920-884-2222,920-431-6672,suedemeny@skaleskimoving.com,AVL,1
Security Storage & Van Company,2131000,,5786 Sellger Drive,Norfolk,VA,23502,757-466-9000,757-466-1779,dona@bigorangetruck.com,AVL,1
"Shippert's Moving & Storage, Inc.",2137000,,404 North Lincoln Avenue,Dixon,IL,61021,815-288-3133,815-288-7787,shipperts@cin.net,AVL,1
"Spaeth Transfer, Inc.",2154000,,1231 Hollis Street,Bremerton,WA,98310,360-373-6101,360-479-5584,spaethtfr@comcast.net,AVL,1
Werner-Donaldson Moving Services,2157000,,3906 E. 21st Ave.,Tampa,FL,33605,813-228-7481,813-228-9100,info@wdmoving.com,AVL,1
"Swan's Moving & Storage Co., Inc.",2161000,,4350 Pacific Highway; I-5 Exit 258,Bellingham,WA,98226,360-734-0540,360-647-0320,swans@nas.com,AVL,1
Jensen Relocation,2164000,,15611 Condon Avenue,Lawndale,CA,90260,310-725-9151,310-643-7989,kirk@jensenrelocation.com,AVL,1
"Security Storage & Van Co. of Newport News, VA, Inc.",2171000,,12671 McManus Boulevard at Newport News-William,Newport News,VA,23602,757-877-7769,757-886-1205,security@moveallied.com,AVL,1
Aspinwall-Security Storage & Van Co.,2172000,,4545 South Boulevard,Virginia Beach,VA,23452,757-499-5951,757-499-4854,dona@bigorangetruck.com,AVL,1
"Sausalito Moving & Storage, Inc.",2188000,,2900 Bridgeway,Sausalito,CA,94965,707-584-8585,707-584-8235,jay@sausalitomoving.com,AVL,1
"Santa Rosa Moving & Storage, Co.",2188001,,5650 State Farm Drive,Rohnert Park,CA,94928,707-584-8585,707-584-8235,jay@santarosamoving.com,AVL,1
"Frontier Moving & Storage, Inc.",2192000,,568 Grange Lane,Twin Falls,ID,83301,208-733-7371,208-734-2337,bevg11@hotmail.com,AVL,1
"Siracusa Moving & Storage, Inc.",2194000,,250 Commerce Circle,New Britain,CT,06051,860-225-9144,860-826-1482,slgrezel@siracusamoving.com,AVL,1
"Coleman American Moving Services of Orlando, LLC",2195000,,9143 Boggy Creek Road,Orlando,FL,32824,407-851-2770,407-859-7635,martin.vah@colemanallied.com,AVL,1
"Coleman American Moving Services, Inc.",2195001,,6000 N. 51st Street,Tampa,FL,33610,813-739-1684,813-217-0312,ray.young@colemanallied.com,AVL,1
AmeriMove/Tallahassee,2200000,,145 Four Points Way,Tallahassee,FL,32305,850-656-7100,850-656-5550,tallahassee@amerimove.com,AVL,1
Marathon Moving,2232000,,129 York Avenue,Randolph,MA,02368,781-963-0322,,,AVL,1
Ray the Mover,2233000,,1 Allard Drive,Manchester,NH,03102,603-669-7170,,,AVL,1
"Texas Storage Company, Inc.",2306000,,656 Neches Street,Beaumont,TX,77701,409-833-2655,409-833-2656,albert1783@aol.com,AVL,1
"Carey Moving & Storage of Greenville, Inc.",2308000,,1 Shelter Drive- I85 & Hwy14,Greenville,SC,29650,864-877-6683,864-877-7687,Greenville@CareyMoving.com,AVL,1
Tippet-Richardson Limited,2318000,242,25 Metropolitan Road,Toronto,ON,M1R 2T5,416-291-1200,416-291-2601,trtoronto@tippet-richardson.com,AVL,1
Tippet-Richardson Limited,2318001,244,26 K Hymus Boulevard,Pointe Claire,QC,H9R 1C9,514-459-0102,514-459-0105,trmontreal@tippet-richardson.com,AVL,1
Tippet-Richardson Limited,2318003,2,1050 Brydges Street,London,ON,N5W 2B4,519-455-0132,519-453-8160,trlondon@tippet-richardson.com,AVL,1
Tippet-Richardson Limited,2318004,243,6 - 25 Groff Place,Kitchener,ON,N2E 2L6,519-748-5403,519-748-5611,barry@tippet-richardson.com,AVL,1
Tippet-Richardson Limited,2318006,240,5499 Canotek Road,Ottawa,ON,K1J 9J5,613-741-3015,613-741-9720,trottawa@tippet-richardson.com,AVL,1
Ted R. Sanders Moving & Warehouse,2336000,,7149 Centennial Blvd.,Nashville,TN,37209,615-350-7080,615-350-7006,charles@tedrsandersmoving.com,AVL,1
Victory Van Corporation,2506000,,950 South Pickett Street,Alexandria,VA,22304,703-751-5200,703-461-6400,patton@victoryvan.com,AVL,1
Victory Van Corporation,2506003,,110 Terminal Drive,Sterling,VA,20166,703-435-4000,703-707-8301,dkennedy@victoryvan.com,AVL,1
Victory Van Corporation,2506004,,14225 Comus Road,Clarksburg,MD,20871,301-428-0850,301-428-9862,nsheffield@victoryvan.com,AVL,1
"AA Varco Moving & Storage, Inc.",2512000,,1821 SW 42nd Way,Deerfield Beach,FL,33442,954-971-7112,954-971-7840,rachels@varcoallied.com,AVL,1
"Wermuth & Cahoon Moving & Storage Co., Inc.",2608000,,2224 Del Monte Avenue,Monterey,CA,93940,831-373-4967,831-373-4978,michael@montereysmovingco.com,AVL,1
Western Van and Storage Co.,2614000,,8521 South 190th Street,Kent,WA,98031,425-251-3400,425-251-3429,patd@westernvan.com,AVL,1
"Westheimer Transfer & Storage Co., Inc.",2615000,,9960 Buffalo Speedway,Houston,TX,77054,713-526-3911,713-526-8654,move@westheimertransfer.com,AVL,1
"White Transfer & Storage Co., Inc.",2620000,,Highway D 20 West,Fort Dodge,IA,50501,515-955-3673,515-955-3520,kevin@dodgenet.com,AVL,1
"Wile Transfer & Storage Co., Inc.",2623000,,3400 Spartanburg Highway,Flat Rock,NC,28731,828-693-7086,828-693-3547,wiletransfer@hotmail.com,AVL,1
"Williamsport Moving Co., Inc.",2624000,,3340 Wahoo Drive,Williamsport,PA,17701,570-326-1727,570-326-2156,sales@williamsportmoving.com,AVL,1
Keystone Relocation,2624001,,"3500 E. College Ave., Suite 1700",State College,PA,16801,814-234-8511,570-326-2156,sales@keystonerelocation.com,AVL,1
The Windsor Truck & Storage Company Limited,2627000,268,201 Shepherd Street East,Windsor,ON,N8X 4K6,519-254-5111,519-254-8011,trwindsor@tippet-richardson.com,AVL,1
Weir Moving & Storage,2646000,,605 Ridge Street,Sault Sainte Ma,MI,49783,906-632-8858,906-632-1122,dkweir@sbcglobal.net,AVL,1
Yakima Transfer and Storage,2806000,,1907 S. 11th St.,Union Gap,WA,98903,509-453-4888,509-453-2831,rhessel30@aol.com,AVL,1
Guardian Overseas Shipping Ltd.,2842000,429,2222 Gladwin Crescent,Ottawa,ON,K1B 4S6,613-523-5855,613-523-3177,bob@guardianoverseas.com,AVL,1
Riteway Movers,2844000,730,232 Sioux Road,Sherwood Park,AB,T8A 3X5,780-938-7483,780-752-2462,edmonton@ritewaymoving.com,AVL,1
Windsor Truck and Storage,2851000,,201 Shepherd Street E.,Windsor,ON,N8X 2K6,,,,AVL,1
Fred Guy Moving & Storage Ltd,2858000,613,1199 Newmarket Street,Ottawa,ON,K1B 3V1,613-744-8632,613-744-8632,,AVL,1
Demenagement Dion 2003,2871000,224,833 Avenue Lord,Rouyn-Noranda,QC,J9X 7G3,819-762-6568,819-762-8998,demenagement.dion@tlb.sympatico.ca,AVL,1
Jenkins Transfer Limited,2872000,120,161 East Drive,Summerside,PE,C1N 4E3,902-628-6683,902-368-2777,dan@jenkinspei.com,AVL,1
Johnson Moving & Storage Ltd,2873000,121,1690 Riverside Drive,Bathurst,NB,E2A 3Z2,506-548-8891,506-548-4724,johnson_moving@yahoo.com,AVL,1
Preston Moving & Storage,2875000,197,420 Baseline Road West,Bowmanville,ON,L1C 3K9,905-623-4433,905-623-4437,martyp@bellnet.ca,AVL,1
"Monette Express Quebec, Inc.",2894000,343,"4050 rue Jean-Marchland, Suite 110",Quebec,QC,G2C 1Y6,418-840-1234,418-840-1730,monette.express@qc.aira.com,AVL,1
Professional Relocation Services Ltd.,2896000,32,1734 Ryan Rd.,Comox,BC,V9M 4C9,250-890-1068,250-890-1078,linda.price@prs-allied.com,AVL,1
Thompson's Moving Group Limited,2897000,141,51 Thornhill Drive,Dartmouth,NS,B3B 1R9,902-469-5100,902-469-5711,blair@thompsonmoving.ca,AVL,1
Thompson's Moving & Storage,2897001,140,3 Freeman Street,Middleton,NS,B0S 1P0,902-825-3929,902-825-6261,jill@thompsonsmoving.ca,AVL,1
Taylor Moving & Storage Ltd.,2905000,828,1200 Plains Road East,Burlington,ON,L7S 1W6,905-632-8010,905-632-8130,csrvburl@ataylormoving.com,AVL,1
Rawlinson Moving & Storage Ltd.,2906000,211,1024 Westport Crescent,Mississauga,ON,L5T 1G1,905-364-1400,905-364-1401,lgauthier@rawlinsonmoving.com,AVL,1
Demenagement Mont-Bruno Inc.,2908000,605,1900 Marie Victorin Blvd.,Montreal,QC,J3V 6B9,450-653-7891,450-653-3641,montreal@brunolake.com,AVL,1
Winnipeg Moving & Storage,2909000,84,400 Oak Point Highway,Winnipeg,MB,R2R 1V1,204-925-6683,204-694-1837,bnichol@winnipegmoving.com,AVL,1
Winnipeg Moving & Storage,2909002,,135 Industrial Drive,Brandon,MB,R7A 7S5,(204) 925-6683,,,AVL,1
"Demenagement Performance PMI, Inc.",2910000,620,9050 Edison Street,Montreal,QC,H1J 1T3,514-351-8700,514-352-8702,mbreton@pmiperformance.com,AVL,1
Harris Movers,2912000,882,878 B Falconbridge Road,Sudbury,ON,P3A 4S4,705-560-2000,705-560-1673,harrismv@ican.net,AVL,1
Demenagement de Drummond Inc.,2913000,65,1120 Rue Bergeron,Drummondville,QC,J2C 0C9,819-478-0323,819-478-5537,franco@demenagement-drummond.ca,AVL,1
All Canada Moving,2915000,291,14 - 5th Street,Nanaimo,BC,V9R 1M7,250-714-4760,,allcanadamoving@shaw.ca,AVL,1
Demenagement Roy & Martineau Inc.,2918000,67,316 12E Avenue South,Sherbrooke,QC,J1G 2V6,819-563-4322,819-569-7352,robin.collard@roymartineau.com,AVL,1
Reid's Transfer & Storage Limited,2919000,206,18-28 Ashburnham Drive,Peterborough,ON,K9J 6Y8,705-745-4705,705-745-4452,reidtran@nexicom.net,AVL,1
West Transfer (2002) Ltd.,2922000,263,1175 Lower China Creek Road,Genelle,BC,V0G 1G0,250-352-3333,250-352-9336,westtransfer@hotmail.ca,AVL,1
Riteway Moving & Services,2923000,720,Bay 1 & 2 2221 - 41 Avenue NE,Calgary,AB,T2E 6P2,403-714-7483,403-250-8374,info@ritewaymoving.com,AVL,1
Bigham The Mover Limited,2924000,20,400 Springbank Avenue South,Woodstock,ON,N4S 7W3,519-537-5568,519-537-2798,admin@bigham.ca,AVL,1
Country Wide Moving & Storage,2926000,69,419-48th Street East,Saskatoon,SK,S7K 6M4,306-934-3335,306-931-4008,ccarswell@sasktel.net,AVL,1
Domestic Moving & Storage Ltd.,2929000,320,111 Blackmarsh Rd,Saint Johns,NL,A1E 1S6,709-747-5188,709-747-2234,mledrew@domesticmoving.nf.net,AVL,1
Wills Transfer Limited,2932000,293,146 Highway 15 - P.O. Box 340,Smiths Falls,ON,K7A 4T2,613-283-0225,613-283-9805,cpenman@willstransfer.com,AVL,1
Wills Transfer Limited,2932001,294,3100 Swansea Crescent -Hawthorne Business Park,Ottawa,ON,K1G 3W4,613-283-0225,613-283-9805,ctrimm@willstransfer.com,AVL,1
Morrows Moving & Storage Ltd.,2933000,112,8905 Nowell Street,Chilliwack,BC,V2P 4X3,604-795-9191,604-792-5002,morrows@telus.net,AVL,1
Morrows Moving & Storage Ltd.,2933001,115,#8 - 30941 Peardonville Road,Abbotsford,BC,V2T 6K3,604-855-7817,604-792-5002,morrows@telus.net,AVL,1
East Coast Moving & Warehouse,2935000,190,406 Grandview Avenue,St John,NB,E2J 4M9,506-633-9180,506-633-1883,movers@eastcoastmoving.com,AVL,1
East Coast Moving & Warehousing,2935001,191,77 Pepin Road,Fredericton,NB,E3B 8J9,506-459-8277,506-458-1153,eastcoastmoving@nb.aibn.com,AVL,1
East Coast Wallace Moving & Warehousing,2935002,201,245 Beaverbrook Street,Moncton,NB,E1C 8N6,506-858-1000,506-858-5628,wallace2@nbnet.nb.ca,AVL,1
LaPalm Moving Systems,2936000,85,87 Wallbridge Crescent,Belleville,ON,K8P 1Z5,613-962-9557,613-962-5629,jim@rentxtrans.com,AVL,1
Algonquin Moving & Storage,2937000,137,P.O. Box 515 1001 MacKay Street,Pembroke,ON,K8A 6X7,613-735-7967,613-735-6170,angie@wemovetheworld.com,AVL,1
"Dwinnell's Delivery & Movers, Ltd.",2944000,480,367 Gill Street,Orillia,ON,L3V 4K5,705-325-5983,705-325-6453,dwinnell@bellnet.ca,AVL,1
"Dwinnell's Delivery & Movers, Ltd.",2944001,481,253 Tiffin St.,Barrie,ON,L4N 2N3,705-772-6740,705-726-9724,dwinnell@bellsouth.ca,AVL,1
"Greg & Sons Moving and Storage, Inc.",2948000,234,2036 Ellesmere Road,Toronto,ON,M1H 2V6,416-289-3047,416-289-3051,geri@gregandsonsmoving.com,AVL,1
Quality Move Management,2975000,815,7979 - 82nd Street,Delta,BC,V4G 1L7,604-952-3650,604-952-3651,tnager@qmm.com,AVL,1
"Quality Move Management (Calgary, Inc.)",2975002,813,#37-2355 52nd Avenue SE,Calgary,AB,T2C 4X7,403-203-5820,403-532-1093,rphelps@qmm.com,AVL,1
Quality Move Management (Edmonton),2975003,833,"Bay 11, Building # 3, 15014 - 135 Ave., NW",Edmonton,AB,T5V 1R9,877-636-0132,780-440-3264,mgordon@qmm.com,AVL,1
Kenwood Moving & Storage. Inc.,2976000,177,6645 Sherbrooke St. West,Montreal,QC,H4B 1N4,514-907-7788,514-907-7557,info@kenwoodmoving.com,AVL,1
Meldrum The Mover,2977000,425,6645 Sherbrooke St. W.,Montreal,QC,H4B 1N4,514-481-1122,514-488-5305,info@meldrumthemover.com,AVL,1
Fox Cartage and Storage,2980000,230,303 Airport Road,North Bay,ON,P1B 8W7,705-474-2440,705-495-2187,farquharnorth@sympatico.ca,AVL,1
LaPalm Moving Systems,2986000,380,143 Russell Street,Kingston,ON,K7K 2G1,613-549-9260,613-549-0976,rtsc2@kos.net,AVL,1
Showcase Relocations,2989000,808,661 W. Athabasca St.,Kamloops,BC,V2H 1C5,250-374-5242,250-372-2019,showcase@miltongroup.ca,AVL,1
Northern Plains Moving & Transport Ltd.,2997000,150,140 MacKay Cres,Fort McMurray,AB,T9H 4W8,780-790-1336,780-790-1211,npm@altech.ab.ca,AVL,1
Maritime Moving & Storage,2998000,171,51 Thornhill Drive,Dartmouth,NS,B3B 1R9,902-468-6868,902-468-6869,blair@maritimemoving.com,AVL,1
Allied International Hawaiian Islands,3500001,,"91-291 Kalaeloa Blvd, #D-1",Kapolei,HI,96707,808-682-2500,808-682-5228,sales@alliedhawaii.com,AVL,1
Coleman Hawaii Movers,3746000,,91-120 Hanua Street,Kapolei,HI,96707,808-682-7000,808-682-6066,robin.potts@colemanhawaii.com,AVL,1
St. Lawrence Moving Systems,381,381,143 Russell Street,Kingston,ON,K7K 2G1,613-549-9260,613-549-0976,rtsc2@kos.net,AVL,1
"Green's Moving & Storage, Inc.",0048000,,1115 E. New York,Rapid City,SD,57701,605-342-7060,605-342-5814,greensmovingandstorage@rushmore.com,NAVL,9
Lile northAmerican,0055000,,"11016 E. Montgomery Drive, Suite 104",Spokane,WA,99206,509-534-1554,509-535-7872,0055@lile.net,NAVL,9
"DJ Moving Services, Inc.",0068000,,1230 Headland Ave.,Dothan,AL,36303,334-793-2324,334-794-8462,djmoving@aol.com,NAVL,9
Montana Transfer Co.,0084000,,209 Commerce,Missoula,MT,59808,406-728-8080,406-543-5539,info@montanatransfer.com,NAVL,9
Sterling Corporation,0217000,,27 Sterling Rd.,Billerica,MA,01862,978-934-8600,978-663-7494,bdastou@sterlingmail.com,NAVL,9
"Coastal Transfer and Storage, Inc.",0231000,,3250 South Fraser Street,Georgetown,SC,29440,843-546-4563,843-546-5525,coastaltransfer@copper.net,NAVL,9
"Stillwater Transfer & Storage, Inc.",0292000,,2005 E. 6th,Stillwater,OK,74074,405-372-0577,405-372-5031,info@stillwatertransfer.com,NAVL,9
"Tyler Moving & Storage Systems, Inc.",0304000,,"240 16th St., S.W.",New Philadelphia,OH,44663,330-339-1800,330-339-1888,tylermoving@roadrunner.com,NAVL,9
"Geo. W. Weaver & Son, Inc.",0331000,,165 Lamont St.,New Cumberland,PA,17070,717-774-7838,717-774-0774,L.Jazitte@WeaverMoving.com,NAVL,9
"Beltmann Group, Inc.",0432000,,N24 W23750 Watertown Road Suite-C,Waukesha,WI,53188,262-650-1540,262-650-1551,beltmann2110@beltmann.com,NAVL,9
King's North American,0434000,,2111 Industrial,Wichita,KS,67216,316-524-9191,316-524-0599,mail@kingms.com,NAVL,9
Sloan's Moving & Storage Co.,0435000,,4119 Rider Trail North,Earth City,MO,63045,314-291-8833,314-291-6127,mail@cordmoving.com,NAVL,9
"David Moving Company, Inc.",0447000,,13455 S. Harrell's Ferry Rd.,Baton Rouge,LA,70816,225-753-3240,225-755-1977,dmovers@bellsouth.net,NAVL,9
Fisher North American,0448000,,S. 5735 Maelou Dr.,Hamburg,NY,14075,716-649-2352,716-649-2891,dan@fisherna.com,NAVL,9
"Air Van Lines, Inc.",0455000,,"2340 130th Avenue NE, Suite 201",Bellevue,WA,98005,425-629-4101,425-629-4120,mail@airvan.net,NAVL,9
"Ferree Movers, Inc.",0456000,,550 Kennedy Ave.,Schererville,IN,46375,219-924-9600,219-924-1826,namovers@aol.com,NAVL,9
"Moving Solutions, Inc.",0474000,,8001 Moving Way,Mentor,OH,44060,440-946-9300,440-946-9650,movingsolutions@movingway.com,NAVL,9
Redman Van & Storage Co.,0481000,,2571 W. 2590 S.,Salt Lake City,UT,84119,801-972-4420,801-972-4171,redman@xmission.com,NAVL,9
"O'Mara Moving & Storage, Inc.",0484000,,1240 S. Adams St.,Freeport,IL,61032,815-232-2512,815-232-1339,info@omaramoving.com,NAVL,9
QHP Moving & Storage Ltd.,0491000,3322,16139 - 114 Avenue,Edmonton,AB,T5M 2Z3,780-413-6446,780-413-6744,qhp@telus.net,NAVL,9
"Eldred Van & Storage, Inc",0503000,,3900 4th Parkway,Terre Haute,IN,47805,812-466-4242,812-466-4268,eldredcompanies@joink.com,NAVL,9
"Bagnell Moving & Storage, Inc.",0504000,,1059 Armory Dr.,Osage Beach,MO,65065,573-348-5518,573-348-3676,bagnellmoving@hughes.net,NAVL,9
Buckeye Moving Systems,0570000,,33455 Winona Rd.,Salem,OH,44460,330-222-2521,330-222-1756,chrisrichards@neo.rr.com,NAVL,9
"Tanner Van Lines, Inc.",0574000,,2250 Charles City Rd.,Richmond,VA,23231,804-377-1700,804-377-1707,rtanner@tannervanlines.com,NAVL,9
G. Fournier Van & Storage Ltd.,0578000,8615,2358 Rough Waters Dr.,Bathurst,NB,E2A 4K6,506-546-5634,506-546-3897,info@gfourniervan.ca,NAVL,9
Household Movers and Shippers,0579000,8619,14 McCurdy Dr.,Gander,NL,A1V1A2,709-651-2050,709-256-2538,moving.householdmovers@nfld.net,NAVL,9
Lloyd The Mover (Pembroke) Ltd,0581000,8659,198 Golf Course Rd.,Pembroke,ON,K8A 7B3,613-732-9101,613-732-7942,lloydthemover@webhart.net,NAVL,9
"Beltmann Group, Inc.",0586000,,3815 W. Washington St.,Phoenix,AZ,85009,602-484-7665,602-484-0185,steve.rinaldo@beltmann.com,NAVL,9
University Moving & Storage Company,0587000,,8735 Rite Track Way,West Chester,OH,45069,513-860-6700,513-860-6710,navl1818@universitymoving.com,NAVL,9
King's North American,0591000,,906 N. Perry,Junction City,KS,66441,785-238-7341,785-238-7096,ccostlow@kingms.com,NAVL,9
"Demenagement Deslauriers, Inc",0594000,1413,960 George Cros St.,Granby,QC,J2J 2E2,450-372-0066,450-378-9713,deslaurierstransport@qc.aira.com,NAVL,9
All World Moving and Storage,0598000,3323,20 Industrial Drive,St John,AL,E2L 3V6,506-642-0205,506-635-8203,saintjohn@allworldmoving.com,NAVL,9
All World Moving and Storage,0599000,3324,77 Pepin Road,Fredericton,NB,E3B 8J9,506-457-6020,506-457-6039,fredericton@allworldmoving.com,NAVL,9
"ABC Moving & Storage, Inc.",0646000,,2011 Stantonsburg Rd.,Greenville,NC,27834,252-752-4500,252-752-0808,abc@abcmovingnc.com,NAVL,9
"Val Verde Mvg. & Warehousing, Inc.",0650000,,128 Kings Way,Del Rio,TX,78840,830-775-0488,830-775-3290,vvmoving@bizstx.rr.com,NAVL,9
Vernon Moving & Storage,0651000,3218,2506-37th St.,Vernon,BC,V1T 6G4,250-545-2185,250-545-7212,tlambrecht@vernonmoving.com,NAVL,9
Warner-Schuitema Moving & Storage Co.,0652000,,327 E. Laketon Ave.,Muskegon,MI,49442,231-722-2292,231-722-0559,skite327@frontier.com,NAVL,9
"Whalen's, Inc.",0655000,,"900 First Ave., N.",Grand Forks,ND,58203,701-775-5557,701-775-5558,move@whalensmoving.com,NAVL,9
"Rapp's Moving & Storage, Inc.",0656000,,430 Fremont St.,Wisconsin Rapids,WI,54494,715-421-4600,715-421-4644,rapps@wctc.net,NAVL,9
"Duncan Moving & Storage, Inc.",0657000,,2061 Old St. James Rd.,Rolla,MO,65401,573-364-1690,573-341-3283,northavla@earthlink.net,NAVL,9
Mohawk Moving & Storage,0658000,8337,15 Sage Ct.,Brantford,ON,N3R 7T4,519-753-4171,519-753-5660,mohawk3@bellnet.ca,NAVL,9
Milton's Movers,0659000,8352,661 W. Athabasca St.,Kamloops,BC,V2H1C5,250-372-2747,250-372-2019,allan@miltongroup.ca,NAVL,9
Labrecque Transport,0661000,8606,833 Avenue Lord,Rouyn-Noranda,QC,J9X 7G3,819-762-6606,819-762-8998,labrecque@tlb.sympatico.ca,NAVL,9
"Premier Moving & Storage, Inc.",0663000,,2701 Vandiver Dr,Columbia,MO,65202,573-474-6158,573-474-2819,allenbeeson@socket.net,NAVL,9
"Sandercock Transfer Co., Inc.",0664000,,300 N. Blosser Rd.,Santa Maria,CA,93454,805-922-4567,805-922-4054,sandercock@fix.net,NAVL,9
"Sandercock Transfer Co., Inc.",0667000,,1708 Beach St.,San Luis Obispo,CA,93401,805-543-6163,805-543-1854,sandercock@fix.net,NAVL,9
"Sterling Trucking, Inc.",0668000,,61 Comstock Parkway,Cranston,RI,02921,401-943-3200,401-943-0850,3386@sterlingmail.com,NAVL,9
McComb Relocation Services,0669000,,3117 Cabaniss Parkway,Corpus Christi,TX,78415,361-888-5907,361-888-4975,ellen@mccombrelocation.com,NAVL,9
Cord North American,0671000,,57 Marsh Dr.,Belleville,IL,62220,618-235-5561,618-235-9353,bellevillegm@cordmoving.com,NAVL,9
"Moving Solutions, Inc.",0686000,,927 Wrigley Way.,Milpitas,CA,95035,408-920-0110,408-920-0190,rose@movingsolutionsinc.com,NAVL,9
"Koller Moving & Storage, Inc.",0780000,,615 South E Street,Fort Smith,AR,72901,479-782-2088,479-782-1570,kollerms@sbcglobal.net,NAVL,9
Riley Moving and Storage,0782000,,7312 Hancock Ct.,Davenport,IA,52806,563-391-1940,563-388-6666,teriley@maherbros.com,NAVL,9
"Beltmann Group, Inc. - National Customer Care Center",0785000,,"1225 Greenbriar Drive, Suite M",Addison,IL,60101,800-859-4440,630-576-5605,,NAVL,9
Rile Moving and Storage,0802000,,4161 Dixon Ave. - Suite 116,Des Moines,IA,50313,515-309-1100,,tjriley@maherbros.com,NAVL,9
"Sterling Moving & Storage, Inc.",1009000,,61 Comstock Parkway,Cranston,RI,02921,401-943-3200,401-943-0850,1009@sterlingmail.com,NAVL,9
"Arnoff Moving & Storage, Inc.",1014000,,1282 Dutchess Turnpike (Rt. 44),Poughkeepsie,NY,12603,845-471-1504,845-452-3606,arnoff1014@arnoff.com,NAVL,9
Great Plains Moving & Storage,1015000,,4655 Geneva Street,Denver,CO,80239,303-333-8212,303-329-6990,Denver@GreatPlainsMoving.com,NAVL,9
Frost The Mover,1018000,1018,87 Wallbridge Cres,Belleville,ON,K8P 1Z5,613-962-5340,613-962-5629,sheilajh@rentxtrans.com,NAVL,9
"Anderson Transfer & Storage of Conway, Inc.",1024000,,141 East Coxes Ferry Rd.,Conway,SC,29526,843-347-4289,843-347-2541,anderson_transfer@yahoo.com,NAVL,9
"Ayer Moving & Storage Co., Inc.",1025000,,109 Central Ave.,Ayer,MA,01432,978-772-2558,978-772-2574,ayermove@ayermoving.com,NAVL,9
Alabama Truck Lines,1027000,,"3314 Jordan Lane, Hwy 53N",Huntsville,AL,35806,256-851-8480,256-851-8222,alabamatruckline@yahoo.com,NAVL,9
Andy's Transfer & Storage,1028000,,3464 N. Verdugo Rd.,Glendale,CA,91208,818-249-2016,818-248-4267,sales@andystransfer.com,NAVL,9
Stacey's (1994) Moving & Storage,1052000,1052,140 Cushman Rd.,St Catharines,ON,L2M 6T6,905-685-6591,905-685-6633,staceys@talkwireless.ca,NAVL,9
Fettes Transportation Systems,1053000,,1830 Building B 4th Ave. NW,West Fargo,ND,58078,701-277-3631,701-277-3633,dave.glaser@fettes-transport.com,NAVL,9
"John E. George, Inc.",1054000,,"121 Tri County Drive, Bldg 6",Freedom,PA,15042,724-371-3100,724-371-3199,rgeorge@georgemoving.com,NAVL,9
Fontaine's Moving & Mini Storage,1062000,1062,10912 - 89 Avenue,Fort St John,BC,V1J 6T3,250-785-1166,250-785-7721,peacemvg@telus.net,NAVL,9
"Rocky Ford Moving Vans, Inc.",1067000,,3411 W. Industrial,Midland,TX,79703,432-683-6341,432-686-0662,rockyford@rockyfordmoving.com,NAVL,9
Adams Transfer & Storage Co.,1068000,,310 Post Oak Dr.,Conroe,TX,77301,936-756-0025,936-756-0027,adamst@adamstransfer.net,NAVL,9
"Arnoff Moving & Storage of Florida, Inc.",1073000,,3620 South Federal Hwy.,Fort Pierce,FL,34982,772-461-0046,772-468-5959,arnoff1073@arnoff.com,NAVL,9
"Doss Moving & Storage, Inc.",1075000,,1175 North Ave.,Sierra Vista,AZ,85635,520-458-7600,520-458-7659,sales@dossmoving.com,NAVL,9
"Doss Moving & Storage, Inc.",1076000,,6600 Interstate 30,Little Rock,AR,72209,501-588-2835,501-569-9080,sales@dossmoving.com,NAVL,9
"Anderson Transfer, Inc.",1087000,,885 S. Guignard Dr.,Sumter,SC,29150,803-773-8886,803-773-9335,andersontransfer1087@gmail.com,NAVL,9
"Alexander's Van & Storage, Inc.",1088000,,5 West Ninth St.,Santa Rosa,CA,95401,707-542-7765,707-542-3028,tabmcbride@movingpro.com,NAVL,9
Family Movers,1097000,1097,65 Hoover Cres.,Orillia,ON,L3V 1K7,705-325-3763,705-325-6453,dwinnell@belnet.com,NAVL,9
Aadvantage North American,1102000,,1714 Frankford Ave.,Panama City,FL,32405,850-769-6683,850-784-0173,panamacity@teammove.com,NAVL,9
Aadvantage North American,1109000,,8761-B Ely Rd.,Pensacola,FL,32514,850-457-6683,850-969-9741,pensacola@teammove.com,NAVL,9
"Beltmann Group, Inc.",1110000,,2480 Long Lake Rd.,Roseville,MN,55113,651-639-2800,651-639-2938,beltmann1110@beltmann.com,NAVL,9
Hanover Transfer & Storage,1114000,,9 Great Hollow Road/Etna Road,Hanover,NH,03755,603-643-3103,603-643-1710,hanoverts@valley.net,NAVL,9
"B & J Moving & Storage, Inc.",1116000,,903 South Main St.,South Bend,MI,46601,574-288-1229,574-288-1325,bjmoving@sbcglobal.net,NAVL,9
Frost The Mover,1122000,1122,143 Russell St.,Kingston,ON,K7K 2G1,613-549-9901,613-549-0976,rtsc2@kos.net,NAVL,9
University Moving & Storage Company,1132000,,23305 Commerce Dr.,Farmington Hills,MI,48335,248-615-7000,248-615-8515,navl1132@universitymoving.com,NAVL,9
University Moving & Storage Company,1136000,,"618-32nd St., S.E.",Grand Rapids,MI,49548,616-245-9284,616-245-4690,navl1136@universitymoving.com,NAVL,9
"Ferree Moving & Storage, Inc.",1138000,,930 Hub Court,Crown Point,IN,46307,219-662-2700,219-662-2800,tferree@pickmta.net,NAVL,9
"Bajet Van Lines, Inc.",1159000,,1217 S. Third Ave.,Wausau,WI,54401,715-842-4691,715-845-3814,service@bajetvanlines.com,NAVL,9
"Bestway Moving & Storage, Inc.",1162000,,2546 N. Eastgate,Springfield,MO,65803,417-866-6542,417-863-8877,Cclotf6858@aol.com,NAVL,9
Ward Moving & Storage of Minot,1163000,,"515 46th Ave., N.W. #5",Minot,ND,58703,701-852-3614,701-852-5657,rwna@srt.com,NAVL,9
"Beltmann Group, Inc.",1169000,,"5575 Venture Dr., Unit D",Parma,OH,44130,216-267-5237,216-267-5352,brenda.thoman@beltmann.com,NAVL,9
Air Van northAmerican,1178000,,1519 St. Paul Ave.,Tacoma,WA,98421,253-272-9811,253-272-9575,seattle_tacoma@airvan.net,NAVL,9
University Moving & Storage Company,1182000,,"5425 W. 74th St., Suite 100",Indianapolis,IN,46268,317-870-7737,317-870-7745,navl1182@universitymoving.com,NAVL,9
Nelson North American,1188000,,25742 Atlantic Ocean,Lake Forest,CA,92630,949-582-0380,949-582-5876,roseanm@nelsonmoving.com,NAVL,9
McMurray Relocation Services,1195000,1195,140 MacKay Crescent,Fort McMurray,AB,T9H 4W8,780-790-1388,780-790-1211,npm@altech.ab.ca,NAVL,9
"A-1 Freeman Moving Group, Inc.",1209000,,"1100 Westlake Parkway, Ste. 175",Atlanta,GA,30336,404-732-9000,404-349-0351,Atlanta@a-1freeman.com,NAVL,9
"Clinton's Transfer & Storage, Inc.",1211000,,1604 Grayland St.,Blacksburg,VA,24060,540-552-3201,540-951-7265,clintons@clintonstransfer.com,NAVL,9
"Beltmann Group, Inc.",1214000,,4897 Lewis Road,Stone Mountain,GA,30083,678-328-2520,770-448-9828,glen.jenkins@beltmann.com,NAVL,9
"Saunier Moving & Storage, Inc.",1235000,,2159 Watterson Trail,Louisville,KY,40299,502-499-9996,859-744-9371,ed@sauniermoving.com,NAVL,9
Air Van,1240000,,19999 SW 95th Avenue,Tualatin,OR,97062,503-885-2353,503-885-2363,mail@airvan.net,NAVL,9
"Allen & Coles Moving Systems, LLC",1242000,,75 Pinetree Industrial Pkwy,Portland,ME,04102,207-775-6683,207-775-6198,info@acmoving.com,NAVL,9
"A-1 Freeman Relocation Systems, Inc.",1260000,,2242 Manana Drive,Dallas,TX,75220,817-336-8100,972-556-1261,hvp@a-1freeman.com,NAVL,9
Cord North American,1270000,,4101 Rider Trail North,Earth City,MO,63045,314-291-7440,314-291-6127,mail@cordmoving.com,NAVL,9
"Hug-Condon Moving & Storage Co., Inc.",1274000,,632 Time Saver Ave.,Harahan,LA,70123,504-733-1483,504-733-1457,hugcon@bellsouth.net,NAVL,9
Greaves Moving & Storage,1278000,1278,785 Lampson St.,Victoria,BC,V9A 6A9,250-388-7808,250-381-2124,greaves@shaw.ca,NAVL,9
Great Plains Moving & Storage,1286000,,760 Ford Street,Colorado Springs,CO,80915,719-597-8850,719-597-3715,colosp@greatplainsmoving.com,NAVL,9
The Moving Mann,1290000,,1494 Wrightsboro Rd.,Augusta,GA,30901,706-722-0478,706-724-3949,mvmann1290@aol.com,NAVL,9
Ward North American,1298000,,"703 Progress Drive, Suite B",Killeen,TX,76543,254-628-0452,254-628-2458,jason.massiatte@wardnorthamerican.com,NAVL,9
Aadvantage Moving & Storage,1299000,,"703 Progress Drive, Suite C",Killeen,TX,76542,254-628-1583,254-628-2458,jmassiatte@wardnorthamerican.com,NAVL,9
Comox Moving & Storage,1311000,1311,1724 Ryan Rd,Comox,BC,V9M 4C9,250-339-2281,250-339-2212,mail@comoxmoving.com,NAVL,9
"Arnoff Moving & Storage of Albany, Inc.",1317000,,7 Tivoli St.,Albany,NY,12207,518-463-5525,518-426-4229,arnoff1317@arnoff.com,NAVL,9
City North American,1325000,,1420 S. Main,Moscow,ID,83843,208-882-2213,208-883-4897,tom@citynorthamerican.com,NAVL,9
Niagara Moving & Storage,1327000,1327,7825 Dorchester Rd.,Niagara Falls,ON,L2G 1E9,905-354-3183,905-354-6544,wayne@niagaramoving.net,NAVL,9
Matheson Tfr. Co.,1333000,,215 Hickory St.,Scranton,PA,18505,570-344-0958,570-714-9902,matheson@epix.net,NAVL,9
Matheson Tfr. Co.,1339000,,Route 611,Stroudsburg,PA,18360,570-775-7719,570-714-9902,mhinchey@mathesontransfer.com,NAVL,9
Mackie Moving Systems,1361000,1361,933 Bloor St. W.,Oshawa,ON,L1J5Y7,905-728-2400,905-443-1303,hhgcustserv@mackiegroup.com,NAVL,9
Mackie Moving Systems,1363000,1363,4900 64 Ave. S.E. Unit # 30,Calgary,AB,T2C 4V3,587-880-3000,,randy.hornung@mackiegroup.com,NAVL,9
Mackie Moving Systems,1364000,,6701 Financial Drive,Mississauga,ON,L5N 7J7,,,,NAVL,9
Alex Moving & Storage,1367000,,"1300 Pacific Ave, Suite B",Oxnard,CA,93030,805-483-1125,805-483-6115,barias@alexmoving.net,NAVL,9
Saunier North American,1370000,,1900 Fortune Drive,Winchester,KY,40391,859-744-6310,859-744-9371,danna@sauniermoving.com,NAVL,9
Wyo-Braska Moving & Storage Co.,1371000,,"80419 CR 19, West Hwy 26",Scottsbluff,NE,69361,308-632-7715,308-632-7857,na.vl@live.com,NAVL,9
Don Hemsted's Van & Storage,1384000,,120 Lake Blvd.,Redding,CA,96003,530-241-3456,530-605-3855,hemsteds@hemsteds.com,NAVL,9
Palmer Moving & Storage Co.,1389000,,24660 Dequindre,Warren,MI,48091,586-834-3400,586-834-3414,tome@palmermoving.com,NAVL,9
Chilo Transport,1390000,1390,210 Fry St.,Nanaimo,BC,V9R 4Z1,250-753-2477,250-753-1257,chilotransport@shaw.ca,NAVL,9
"Universal Relocation Systems, Inc.",1391000,,1234 Shappert Dr.,Rockford,IL,61115,815-633-6600,815-633-4887,universalrelocation@tds.net,NAVL,9
"DeHaven's Transfer & Storage, Inc.",1402000,,1900 North Pointe Dr.,Durham,NC,27705,919-220-5441,919-220-6324,chris.frothingham@dehavens.com,NAVL,9
"DeHaven's Transfer & Storage of Greensboro, Inc.",1419000,,3123 E. Cedar Park Road,Greensboro,NC,27405,336-273-8648,336-379-0861,greensboro@dehavens.com,NAVL,9
"Gossard North American, LLC",1421000,,245 E Murphy St,Lima,OH,45801,419-225-4818,419-222-7885,gossard@gossardmoving.com,NAVL,9
"Dan's Moving & Storage, Inc.",1432000,,211 W. Second St.,Dunkirk,NY,14048,716-366-7642,716-366-0866,dansmove@netsync.net,NAVL,9
"Ace Moving & Storage Co., Inc.",1443000,,2400 34th St.,Gulfport,MS,39501,228-863-5212,228-864-4100,acemvg@bellsouth.net,NAVL,9
"Beltmann Group, Inc.",1450000,,2480 Long Lake Rd.,Roseville,MN,55113,651-639-2800,651-639-2937,beltmann1450@beltmann.com,NAVL,9
American Van Service,1455000,,Big Boom Rd.,Glens Falls,NY,12801,518-793-6622,518-793-5878,operations@americanmove.com,NAVL,9
"Central Maine Storage, Co.",1464000,,78 Rice St.,Bangor,ME,04401,207-947-4114,207-941-2134,info@movingme.com,NAVL,9
"Peroulas Moving & Storage, LLC",1467000,,10652 Dutchtown Rd.,Knoxville,TN,37932,865-777-9555,865-777-9560,peroulas1467@aol.com,NAVL,9
"A-1 Moving & Storage, Inc.",1468000,,2301 W. Everett St.,Appleton,WI,54912,920-734-6052,920-734-4219,info@longmoving.com,NAVL,9
Ward North American,1481000,,"902 s. International Road, Suite 300",Garland,TX,75042,972-272-4622,972-485-0325,kraig@wardnorthamerican.com,NAVL,9
"Arnoff Storage, Inc.",1485000,,5979 North Elm,Millerton,NY,12546,518-789-0110,845-454-6624,arnoff1485@arnoff.com,NAVL,9
"Dimon & Bacorn, Inc.",1498000,,93 Industrial Park Blvd.,Elmira,NY,14901,607-734-2937,607-732-4338,jroot@dimonandbacorn.com,NAVL,9
Burgess Moving & Storage,1504000,,1625 Iowa Ave.,Riverside,CA,92507,951-682-4300,951-369-1880,ecoelho@burgessmoving.com,NAVL,9
King's North American,1508000,,5231 Front Street,Kansas City,MO,64120,816-483-9500,816-483-9930,nlatini@kingms.com,NAVL,9
"Evans Van & Storage, LLC",1517000,,"301 Jacobson Dr., Suite B Rock Branch Ind. Pa",Poca,WV,25159,304-755-9855,304-755-9871,jrussell@centralvan.com,NAVL,9
"Approved Moving & Storage, Inc.",1521000,,49-09 Rockaway Beach Blvd.,Far Rockaway,NY,11691,718-452-3000,718-452-2572,approved11@aol.com,NAVL,9
Cord Moving - Memphis,1522000,,"3264 Democrat Rd., Suite 5",Memphis,TN,38118,901-370-6400,901-375-1476,gary.lee@cordmoving.com,NAVL,9
"Williams Transportation & Storage, Inc.",1539000,,2301 Sartor,Leesville,LA,71446,337-239-2210,337-238-9881,willtran@bellsouth.net,NAVL,9
Alex Moving & Storage,1544000,,2610 S. Birch St.,Santa Ana,CA,92707,714-549-8696,714-662-2423,mmendoza@alexmoving.net,NAVL,9
"Evans Transfer & Movers, Inc.",1550000,,"R.R. #2, Box 840 (Exit 125 off I-79)",Shinnston,WV,26431,304-592-2765,304-592-1549,rtipton@evanstrf.com,NAVL,9
"Mark's Moving & Storage, Inc.",1554000,,321 Taylor St.,Magnolia,AR,71753,870-234-5466,870-234-3838,marksmovingstorage@yahoo.com,NAVL,9
New Sudbury Storage,1557000,1557,878C Falconbridge Rd.,Sudbury,ON,P3A 4S4,705-560-5252,705-560-1673,ggravelle@ican.net,NAVL,9
Ward North American,1559000,,2251 Picadilly Suite A100,Austin,TX,78660,512-834-9733,512-339-0545,tom.leyland@wardnorthamerican.com,NAVL,9
Valley Relocation & Storage,1563000,,3230 Reed Ave,West Sacramento,CA,95605,916-375-0001,916-375-0042,stacy@valleyrelocation.com,NAVL,9
"The Moving Connection, Inc.",1566000,,2659 Merchant Drive,Baltimore,MD,21230,443-524-1202,443-524-1209,info@themovingconnection.com,NAVL,9
"Allen & Coles Moving Systems, LLC",1569000,,241 Willard St.,Leominster,MA,01453,978-368-7008,978-368-7073,debbie@abcmoving.com,NAVL,9
All World Moving and Storage,1571000,1571,245 Beaverbrook St.,Moncton,NB,E1C 8N6,506-387-7730,506-387-8521,moncton@allworldmoving.com,NAVL,9
"Executive Mvg. Systems, Inc.",1588000,,2910 E. White Star Ave.,Anaheim,CA,92806,714-688-4800,714-688-4812,executive@executivemovingsystems.com,NAVL,9
"Mayberry's Van & Storage, Inc.",1590000,,1850 Cardington Rd.,Dayton,OH,45409,937-298-8800,937-298-0413,admin@mayberrymovers.com,NAVL,9
B. F. Fields Moving & Storage,1603000,,945 Downing St.,Erie,PA,16511,814-454-2481,814-455-6477,bffields@choiceonemail.com,NAVL,9
"A-1 Freeman Moving & Storage, Inc",1605000,,11517 N. Broadway Ext.,Oklahoma City,OK,73114,405-751-7561,405-751-8962,okcfreeman@a-1freeman.com,NAVL,9
"Fidelity Moving & Storage Co., Inc.",1606000,,537-A South Eastern Blvd.,Fayetteville,NC,28302,910-485-2186,910-485-6787,vfilley@csfay.com,NAVL,9
"Roseville Van & Storage, Inc.",1608000,,7337 Roseville Rd Suite 1,Sacramento,CA,95842,916-349-1119,916-349-1122,rsvlvan@sbcglobal.net,NAVL,9
Fridrich northAmerican,1614000,,14800 Brookpark Rd.,Cleveland,OH,44135,216-676-0500,216-676-8107,fm@fridrichmoving.com,NAVL,9
Family Movers,1619000,1619,253 Tiffin St.,Barrie,ON,L4N 2N3,705-722-6740,705-726-9724,movewithus@on.aibn.com,NAVL,9
"Fidelity Moving & Storage Co., Inc.",1620000,,96 Western Blvd.,Jacksonville,NC,28546,910-353-1919,910-353-5514,tharris@fidelitymovingandstorage.com,NAVL,9
"Fidelity Moving & Storage Co., Inc.",1623000,,600 Hwy 70 East,New Bern,NC,28560,252-638-2980,252-633-0378,abradley@fidelitymovingandstorage.com,NAVL,9
Francis Rush Transfer,1624000,1624,234 Mason Rd.,Stratford,PE,C1A 7J6,902-894-4566,902-566-5503,rushtfr@pei.aibn.com,NAVL,9
Golden Isles Moving & Storage,1634000,,4281 Hwy 17 North,Brunswick,GA,31525,912-264-2230,912-264-2277,gims@comcast.net,NAVL,9
Traditional Moving,1638000,1638,#1-70 Eagle Drive,Winnipeg,MB,R2R1V5,204-925-4000,204-694-1837,baylard@traditionalmoving.ca,NAVL,9
Air Van NA - hauling code,1640000,,"2340 130th Ave. N.E., Suite 201",Bellevue,IN,98005,260-580-9143,,kscreeton@airvan.net,NAVL,9
"Ferguson Transfer Co., Inc.",1653000,,"1690 Ocean Blvd., N.W.",Coos Bay,OR,97420,541-888-5578,541-888-2608,fergusontransfer@epuerto.com,NAVL,9
Abide Moving & Storage,1656000,,11533 N. Santa Fe,Oklahoma City,OK,73114,405-751-7333,405-751-8962,okcfreeman@a-1freeman.com,NAVL,9
New Mexico Van Lines,1658000,,5005 Paseo Del Norte NE,Albuquerque,NM,87113,505-823-1400,505-828-1846,galvarez@abqmoving.com,NAVL,9
Valley Relocation & Storage,1661000,,5000 Marsh Drive,Concord,CA,94520,925-682-3740,925-603-7118,navlteam@valleyrelocation.com,NAVL,9
"B & J Moving & Storage, Inc.",1662000,,4535 Wayne Rd.,Battle Creek,MI,49015,269-968-3540,269-968-3851,bjmoving@sbcglobal.net,NAVL,9
"Florida Moving Systems, Inc.",1680000,,280 North Drive,Melbourne,FL,32934,321-259-4330,321-259-4511,cdeneen@flmove.com,NAVL,9
"State Fair Moving & Storage, Inc.",1688000,,118 N. Lamine,Sedalia,MO,65301,660-826-1946,660-827-6181,sfmoving@sbcglobal.net,NAVL,9
"Granite City Moving & Storage, Inc.",1707000,,207 14th Avenue East,Sartell,MN,56377,320-252-1311,320-255-0081,dustin@granitecitymoving.com,NAVL,9
Bold Moving & Storage,1713000,,100 Owens Road,Brockport,NY,14420,585-431-0011,585-431-0071,boldmvg@choiceonemail.com,NAVL,9
"Advance Relocation & Storage Systems, Inc.",1726000,,3488 Ogeechee Road,Savannah,GA,31405,912-233-1313,912-236-6556,movers@advancerelocation.net,NAVL,9
Air Van northAmerican,1729000,,Sales Office,Bellevue,WA,98005,425-348-4113,425-348-4223,mail@airvan.net,NAVL,9
San Angelo Transfer Co.,1739000,,2015 Ben Ficklin Rd.,San Angelo,TX,76903,325-655-6100,325-653-4641,connie@sanangelotransfer.com,NAVL,9
A-1 Freeman North American,1752000,,2242 Manana Dr.,Dallas,TX,75220,972-556-1777,972-556-1261,mwaller@a-1freeman.com,NAVL,9
"Ellis Moving & Storage, LLC",1756000,,740 Hickory Industrial Dr.,Old Hickory,TN,37138,615-262-9090,615-262-9960,emove@ellismoving.net,NAVL,9
"Greater Syracuse Moving & Storage Co., Inc.",1779000,,6255 E. Taft Rd.,North Syracuse,NY,13212,315-458-9080,315-458-9046,jonc@gsmoving.com,NAVL,9
"Allen & Coles Moving Systems, LLC",1786000,,12 Brockes Road,Hudson,NH,03051,603-382-9362,603-378-9160,lisa@acmoving.com,NAVL,9
"A-1 Freeman Relocation, Inc.",1788000,,9619 Kirkton,Houston,TX,77095,281-550-1110,281-859-4207,dware@a-1freeman.com,NAVL,9
"J. A. Haralson Moving & Storage, Inc.",1805000,,4134 Chandler Hwy.,Tyler,TX,75702,903-593-2525,903-592-2082,haralsonmoving@yahoo.com,NAVL,9
"Hathorn Transfer & Storage Co., Inc.",1810000,,620 Elliott St.,Alexandria,LA,71301,318-445-1411,318-448-4175,hathorn2@bellsouth.net,NAVL,9
Richmond North American,1825000,,"1005 S. ""Q"" St.",Richmond,IN,47374,765-962-3578,765-966-2386,richmondnoam1825@aol.com,NAVL,9
"A-1 Freeman Moving & Storage, Inc.",1831000,,590 Greenhill Dr.,Round Rock,TX,78664,512-246-3706,512-246-3780,mdorn@a-1freeman.com,NAVL,9
Household Movers and Shippers,1833000,1833,22 Burnwood Drive,Goose Bay,NL,A0P 1C0,709-896-5534,709-896-8988,hhmovers@hvgb.net,NAVL,9
Harrisburg Storage Company,1835000,,165 Lamont St.,New Cumberland,PA,17070,717-774-7835,717-774-0774,geowweav1@aol.com,NAVL,9
"H & S Warehouse, Inc.",1841000,,1426 Well St.,Fairbanks,AK,99701,907-452-1286,907-452-8287,kkarns@hswarehouse.com,NAVL,9
"HMS Van Lines, Inc.",1847000,,133 Maple St,Stoughton,MA,02072,781-767-5720,781-767-5886,hmsmovingservices@verizon.net,NAVL,9
Republic Moving & Storage,1849000,,"43085 Business Park Drive, Suite C",Temecula,CA,92590,951-719-1080,951-719-1078,blovejoy@lovejoymoving.com,NAVL,9
Household Movers and Shippers,1852000,1852,"Country Rd Ind Park, 5 Lundrigan Drive",Corner Brook,NL,A2H 6G7,709-634-2434,709-634-9643,hhmovers@nfld.net,NAVL,9
Household Movers and Shippers,1854000,1854,"19 Clyde Ave., Donovans Indus. Park",Mount Pearl,NL,A1N 4R8,709-747-4222,709-368-2619,stjohns@hhmovers.ca,NAVL,9
Flowers Transfer Corp.,1856000,,425 St. Deporres,Broussard,LA,70518,337-837-2802,337-837-5480,david@flowerstransfer.com,NAVL,9
Allstar Moving & Storage,1858000,,801 Comanche NE # G,Albuquerque,NM,87107,505-888-1007,505-888-2946,brad@northamericanabq.com,NAVL,9
Worldwide Moving Systems,1861000,,501 S. Francis St.,Longmont,CO,80501,303-776-8529,303-684-9220,worldwide@worldwidemovingco.com,NAVL,9
Homestead Transfer & Storage Co.,1862000,,32100 S.W. 187th Ave.,Homestead,FL,33030,305-247-5012,305-247-9939,adrienne@htsnavl.com,NAVL,9
Hall-Lane Moving & Storage Co.,1865000,,67 Mall Drive,Commack,NY,11725,631-543-6801,631-543-6861,shall@@hall-lane.com,NAVL,9
Penfold Cartage,1870000,1870,182 Black Pine Road,Sault Ste Marie,ON,P6A 6J8,705-759-6055,705-759-6031,penfoldcartage@bellnet.ca,NAVL,9
All America Relocation Inc.,1872000,,14675 Foltz Industrial Parkway,Strongsville,OH,44149,440-846-0722,440-846-0728,meredithm@allamericarelo.com,NAVL,9
"Rainbow Movers, Inc.",1875000,,"20 Liberty Way, Suite B",Franklin,MA,02038,508-528-4111,508-528-0647,emcenaney@rainbowmovers.com,NAVL,9
Gasperson Transfer,1876000,,250 Weaverville Road,Asheville,NC,28804,828-658-8880,828-658-8882,tomjr@gaspersonmoving.com,NAVL,9
"Jacobson's Moving & Storage, LLC",1880000,,"3120 South Avenue, Suite 119",La Crosse,WI,54601,608-784-8957,608-784-8956,moving4u@aol.com,NAVL,9
"Schuman B-Line Moving & Storage, Inc.",1884000,,6473 State Hwy 23,Oneonta,NY,13820,607-432-3800,607-432-3899,SBL1884@schumanbline.com,NAVL,9
Total-Relocation,1887000,1887,25 Metropolitan Road,Toronto,ON,M1R 2T5,416-922-5259,416-291-2601,operations@totalrelocation.ca,NAVL,9
Mid-Michigan Moving & Storage,1888000,,2374 Parkway Dr,Mount Pleasant,MI,48858,989-772-2824,989-772-9391,dlewis@morsemoving.com,NAVL,9
Alero Moving & Storage,1890000,1890,2190 Notre Dame Ave,Winnipeg,MB,R3H 0K2,204-779-0714,204-779-0716,doug@aleromoving.com,NAVL,9
Alero Moving & Storage,1892000,1892,5700 - 44 Street SE,Calgary,AB,T2C 4Y5,403-243-0448,403-243-0002,rick@aleromoving.com,NAVL,9
Alero Moving & Storage,1897000,1897,224 Leonard St.,Regina,SK,S4N 5V7,306-757-6022,306-757-8322,kimberley@aleromoving.com,NAVL,9
Lile North American,1898000,,5720 B NE 121st Ave,Vancouver,WA,98682,360-892-1454,360-892-7921,1898@lile.net,NAVL,9
Burke Moving & Storage of Wyoming,1899000,,"220 Evelyn Street, Suite E",Cheyenne,WY,82007,307-635-3608,307-638-8355,bryan@burkemoving.com,NAVL,9
Ward North American,1902000,,875 S. 65th Ave.,Phoenix,AZ,85043,602-233-0146,602-233-0155,wes.waddell@wardnorthamerican.com,NAVL,9
"Millennium Relocation Services, Inc.",1906000,,9332 NW 101 Street,Medley,FL,33178,305-805-1264,305-805-1266,millenniummoving@aol.com,NAVL,9
"Medford Moving & Storage, Inc.",1911000,,6461 Crater Lake Hwy.,Central Point,OR,97502,541-831-0064,541-831-0068,sean@medfordmovingstorage.com,NAVL,9
Ray The Mover,1912000,,3861 Domestic Avenue,Naples,FL,34104,239-643-4100,239-643-2180,office@raythemover.com,NAVL,9
Silver State Moving & Storage,1915000,,140 S Stanford,Sparks,CA,89431,775-856-6146,775-352-8007,kathy@colonialvan.com,NAVL,9
"AAA Moving & Warehousing Company, LLC",1918000,,"5235 Kooiman Road, Ste#4",Theodore,AL,36582,251-653-0004,251-653-0009,rflynn@aaamoveco.com,NAVL,9
Freddy Duncan & Sons Moving & Storage,1919000,,809 East 20th Street,Cookeville,TN,38501,931-526-9500,931-854-9032,duncanfreddy@gmail.com,NAVL,9
Redman Van & Storage Co.,1920000,,"Building E-16, Freeport Center",Clearfield,UT,84015,801-776-2645,801-776-2648,redmanot@xmission.com,NAVL,9
E. E. Ward Moving & Storage LLC,1924000,,1975 Galaxie Street,Columbus,OH,43207,614-298-8414,614-298-8346,eeward@wemovecolumbus.com,NAVL,9
"Moore North American Relocation, Inc.",1926000,,2728 Nevada Ave.,Norfolk,VA,23513,757-853-6683,757-200-9100,moorenorthamerican@gmail.com,NAVL,9
"Bloomington Relocation Systems, Inc.",1927000,,"1802 Industrial Park Drive, Suite B",Normal,IL,61761,309-888-4370,309-888-4380,kelly@brs-navl.com,NAVL,9
Demenagement VIP,1930000,1930,1640 Talbot Boulevard,Quebec,QC,G2N 0C5,418-849-9446,418-849-6473,NAVLQuebec@ccapcable.com,NAVL,9
"First Class Moving Systems, Inc.",1932000,,5105 W. Clifton Street,Tampa,FL,33634,813-889-0308,813-889-3802,chunt@movewithclass.com,NAVL,9
Republic Moving & Storage,1934000,,"2311 Boswell Road, Suite 5",Chula Vista,CA,91914,619-591-0070,619-591-0080,blovejoy@lovejoymoving.com,NAVL,9
Oakley Relocation LLC,1935000,,13026 Stowe Dr,Poway,CA,92064,858-602-1010,858-486-6023,sales@oakleyrelocation.com,NAVL,9
Total-Relocation,1950000,1950,5499 Canotek Rd.,Ottawa,ON,K1J 9J5,613-741-0953,613-741-9720,jeffb@tippet-richardson.com,NAVL,9
A1 Moving & Storage,1952000,1952,8035 N Fraser Way,Burnaby,BC,V5J 5M8,604-879-6861,604-874-1995,kristyo@tippetrichardson.com,NAVL,9
Jackson Moving & Storage,1954000,,10423 W. Franklin Ave.,Franklin Park,IL,60131,847-288-1039,847-288-0278,smanso@chicagolandmover.net,NAVL,9
Total-Relocation,1957000,1957,250 Metropolitan,Toronto,ON,M1R 2T5,416-922-5259,416-291-2601,trtoronto@tippet-richardson.com,NAVL,9
Total-Relocation,1958000,1958,26 K Hymus Boulevard,Pointe Claire,QC,H9R 1C9,514-459-0102,514-459-0105,trmontreal@tippet-richardson.com,NAVL,9
Total-Relocation,1959000,1959,1050 Brydges St.,London,ON,N5W2B4,519-659-9750,519-453-8160,trlondon@tippet-richardson.com,NAVL,9
Total-Relocation,1960000,1960,6 - 25 Groff Place,Kitchener,ON,N2E 2L6,519-748-5403,519-748-5611,johnb@totalrelocation.ca,NAVL,9
Total-Relocation,1961000,1961,201 Shepherd St. East,Windsor,ON,N9A 6P4,519-254-5113,519-254-8011,trwindsor@tippet-richardson.com,NAVL,9
Bowes Pickfords Ltd.,1965000,1965,8905 Nowell Street,Chilliwack,BC,V2P4X3,604-792-8641,604-792-0762,bowespickfords@telus.net,NAVL,9
Air Van,1969000,,209 Post Rd.,Anchorage,AK,99501,907-272-0536,907-272-1993,avlianch@alaska.net,NAVL,9
A-1 Freeman Moving & Storage - El Paso LLC,1971000,,28 C Spur Drive,El Paso,TX,79906,915-771-0265,915-771-7295,lcuevas@a-1freeman.com,NAVL,9
"DeHaven's Transfer & Storage of Wilmington, Inc",1972000,,1215 23rd Street,Wilmington,NC,28405,910-762-6661,910-762-5555,wilmington@dehavens.com,NAVL,9
"DeHaven's Transfer & Storage of Charlotte, Inc",1973000,,2213 Distrubution Center Dr. Suite E,Charlotte,NC,28269,704-597-6201,704-597-6229,cgravely@dehavens.com,NAVL,9
NC Moving & Storage Solutions,1977000,,680 85th Avenue,Oakland,CA,94621,877-297-4840,510-357-6111,bklein@ncmss.com,NAVL,9
L&J Moving and Storage,1979000,,190 Yarnell Road,Pottstown,PA,19465,610-921-2063,610-929-2127,jfry@ljmoving.net,NAVL,9
Beltmann Chicago,1984000,,90 West Lake Drive,Glendale Heights,IL,60139,630-665-7439,630-665-7482,Ted.Kinder@beltmann.com,NAVL,9
"Beltmann Group, Inc.",1985000,,1991 Fairway Drive,San Leandro,CA,94577,510-357-8590,510-357-8956,jay.ludwig@beltmann.com,NAVL,9
Ward North American,1986000,,3700 Claymoore Park Drive Suite 100,Houston,TX,77043,713-895-9988,713-934-9794,eric.martinez@wardnorthamerican.com,NAVL,9
Beltmann Group,1987000,,158 Mt. Olivet Ave,Newark,NJ,07114,973-424-1280,973-424-1286,jeff.silverstein@beltmann.com,NAVL,9
"Hawkeye Moving Services, Inc.",1989000,,2820 S. Riverside Dr.,Iowa City,IA,52246,319-688-5440,319-688-8889,gerot.d@hawkeyemoving.com,NAVL,9
Hoover the Mover,1991000,,4705 Clubview Drive,Fort Wayne,IN,46804,260-459-6926,260-432-4084,tlevy@hoovermover.com,NAVL,9
Mother Lode Van & Storage,1992000,,11255 Pyrites Way- Suite 400,Rancho Cordova,CA,95670,916-631-4285,916-631-1722,info@mlvs.com,NAVL,9
Edward Neutz Sons and Daughters Moving,1997000,,13010 Aiken Road,Louisville,KY,40223,502-254-7672,502-254-7638,ed@louisvillemovingcompany.com,NAVL,9
Baymeadows Moving and Storage,1999000,,6419 Philips Highway,Jacksonville,FL,32216,904-737-3530,904-737-3580,linda@baymeadowsmovers.com,NAVL,9
Professional Moving & Storage,2004000,,2209 Station Rd.,Richmond,VA,23234,804-291-3543,804-433-3821,professionalmovers2010@hotmail.com,NAVL,9
Jackson's Transfer & Storage,2005000,,"291 Orangeburg St., N.E.",Aiken,SC,29801,803-648-4217,803-648-3173,jacksontransfer@bellsouth.net,NAVL,9
ShoreView Moving & Storage,2009000,,23000 Ladbrook Drive,Dulles,VA,20166,703-661-3550,703-661-3555,callgaier@bayshoreteam.com,NAVL,9
Redman Van & Storage,2020000,,1450 S. Sandhill Dr.,Washington,UT,84780,435-628-8314,435-627-0444,kerigraff@redmanvan.com,NAVL,9
American Movers,2022000,,2806 Austin St.,Texarkana,TX,75501,903-793-1951,903-794-5041,americanmovers@windstream.net,NAVL,9
Morgan Moving & Storage,2024000,,190 Yarnell (off Laurelwood),Pottstown,PA,19465,610-327-3100,610-327-8585,sfry@ljmoving.net,NAVL,9
Advantage Moving & Storage Inc.,2028000,,2641 Corporate Parkway,Algonquin,IL,60102,847-658-3600,847-658-3855,Kelly.Gorham@advantage-move.com,NAVL,9
Jackson Moving & Storage Company,2037000,,507 South Center St,Goldsboro,NC,27533,919-735-2953,919-735-199_,jackson-ms@earthlink.net,NAVL,9
Burgess northAmerican,2046000,,770 S. Gene Autry Trail,Palm Springs,CA,92264,760-327-4405,760-327-9757,psmover@gte.net,NAVL,9
"B & J Moving & Storage, Inc.",2053000,,3110 Turner St.,Lansing,MI,48906,517-484-0923,517-484-0304,bjsales@bandjmovingnavl.com,NAVL,9
"Kettering Moving & Storage, Inc.",2113000,,3757 S. Dixie,Dayton,OH,45439,937-298-6325,937-298-8228,ken@ketteringmoving.com,NAVL,9
"Beltmann Group, Inc.",2130000,,"3039 N. Andrews Ave., Ext.",Pompano Beach,FL,33064,954-977-4552,954-977-5963,beltmann2130@beltmann.com,NAVL,9
Empire Warehouse Co.,2142000,,9201 Empire Ave.,El Paso,TX,79925,915-592-5222,915-594-9783,bmobley777@aol.com,NAVL,9
Aadvantage North American,2162000,,"738 Capital Circle, N.W.",Tallahassee,FL,32304,850-575-6683,850-574-3351,tallahassee@teammove.com,NAVL,9
"Classic Moving & Storage, Inc.",2174000,,7905 Hwy 12 East,Eau Claire,WI,54701,715-835-3002,715-835-3036,info@classicmoving.org,NAVL,9
"Bob Wootan Moving & Storage Co., Inc.",2180000,,1650 Whiting Rd.,Jackson,MS,39209,601-922-1241,601-922-1244,bobwootan@comcast.net,NAVL,9
"Lambert Transfer & Storage, Inc.",2204000,,"1102 Fox Trail, Suite B",Opelika,AL,36801,334-745-5706,334-745-7240,mover@lamberttransfer.net,NAVL,9
Neighbors Moving & Storage,2208000,,18409 Cascade Ave S.,Tukwila,WA,98188,425-656-4444,425-728-1100,joe@neighborsmovingseattle.com,NAVL,9
"First Class Moving Systems, Inc.",2209000,,1152 SW 32nd Way,Deerfield Beach,FL,33442,,,,NAVL,9
L&J Moving and Storage Raleigh,2211000,,3900 US 70 Highway Business West,Clayton,NC,27520,919-934-2082,919-934-0392,,NAVL,9
"Lambert Relocation, Inc.",2212000,,3215 Roberson Road,Florence,AL,35630,256-764-0681,256-764-0780,,NAVL,9
Lile northAmerican,2213000,,"8060 SW Pfaffle St., Suite 200",Tigard,OR,97223,503-726-4800,503-691-3584,2213@lile.net,NAVL,9
"J. & J. Moving & Storage Company, Inc.",2215000,,26 Lambert St.,Newnan,GA,30263,770-253-5854,770-253-5140,jjmovers@numail.org,NAVL,9
Lambert Transfer & Storage-Mobile/Pensacola,2219000,,8761-B Ely Road,Pensacola,FL,32514,205-283-2484,850-969-9741,,NAVL,9
All City Moving & Storage,2236000,,1770 Viking St.,Alameda,CA,94501,415-822-8300,510-749-8335,allcity1@pacbell.net,NAVL,9
Lile northAmerican,2240000,,"1957 Claxter Rd., N.E.",Salem,OR,97303,503-393-0110,503-393-3561,2240@lile.net,NAVL,9
Lile North American,2241000,,2061 Lars Way,Medford,OR,97501,541-772-6278,541-770-5235,jim.hall@lile.com,NAVL,9
"Able Metro Moving & Storage, Inc.",2242000,,"13 New Brooklyn Rd., Unit C",Edison,NJ,08817,732-287-0909,732-287-0711,ablemetro@verizon.net,NAVL,9
Lile northAmerican,2246000,,3330 Roosevelt Blvd.,Eugene,OR,97402,541-689-6683,541-689-0080,2246@lile.net,NAVL,9
Lile northAmerican,2251000,,"606 W. Reynolds Avenue, Suite 2",Centralia,WA,98531,360-423-2260,360-423-5657,2251@lile.net,NAVL,9
Lile northAmerican,2260000,,19460 S.W. 118th Ave.,Tualatin,OR,97062,503-691-0530,503-691-1403,2260@lile.net,NAVL,9
Lile northAmerican,2265000,,"10610 32nd Ave., South",Tacoma,WA,98499,253-584-2222,253-984-6127,lile2265@lile.net,NAVL,9
Lile northAmerican,2268000,,20427 87th Ave. S.,Kent,WA,98031,253-872-2222,253-872-8540,2268@lile.net,NAVL,9
Lile northAmerican,2270000,,"6000 W. Werner Rd., Suite A",Bremerton,WA,98312,360-377-3863,360-792-1469,2270@lile.net,NAVL,9
"Lawton Moving & Storage, Inc.",2277000,,"1602 SW ""F"" Ave.",Lawton,OK,73501,580-353-0754,580-353-7505,christy@lawtonmsinc.com,NAVL,9
"Advance Moving Systems, Inc.",2286000,,3755 S. Dixie Ave.,Dayton,OH,45439,937-298-0065,937-298-8228,kms@ketteringmoving.com,NAVL,9
"Calaway Transfer & Storage, Inc.",2290000,,1409 Beacon St.,Muskogee,OK,74403,918-682-6082,918-686-0033,calaway_transfer@hotmail.com,NAVL,9
Valley Relocation & Storage,2292000,,1710 Little Orchard St.,San Jose,CA,95125,408-938-3600,408-279-4779,rrojas@valleyrelo.com,NAVL,9
Lloyd's Transfer & Storage,2298000,,409 E. Main St.,Berryville,VA,22611,540-955-1247,540-955-4061,arty@lloydstransfer.com,NAVL,9
Cumberland-North American,2315000,,Miltenberger Place,Cumberland,MD,21502,301-724-3900,301-724-3901,navcbld@atlanticbb.net,NAVL,9
"Beltmann Group, Inc.",2330000,,6917 Presidents Drive,Orlando,FL,32809,407-295-0636,407-291-4370,beltmann2330@beltmann.com,NAVL,9
"Gale Transfer, Inc.",2338000,,953 S. 3rd. Ave.,Yuma,AZ,85364,928-782-1877,928-783-0627,operations@galetransfer.com,NAVL,9
"A-Turner Moving & Storage, Inc.",2347000,,1001 N.W. 53rd Ave.,Gainesville,FL,32609,352-372-0406,352-372-0408,tturner@a-turnermoving.com,NAVL,9
Matheson Tfr. Co.,2350000,,157 Welles St.,Forty Fort,PA,18704,570-288-5469,570-714-9902,sales@mathesontransfer.com,NAVL,9
Volusia Van & Storage,2374000,,916 S. Nova Rd.,Ormond Beach,FL,32174,386-673-1005,386-673-4499,info@volusiavan.com,NAVL,9
Westmount Moving & Warehousing,2394000,2394,592 Hull Street,Montreal,QC,H8R 1V9,514-366-6683,514-366-6685,info@westmountmoving.com,NAVL,9
Westmount Moving & Warehousing,2395000,2395,335 Gage Avenue,Kitchener,ON,N2M 5E1,519-895-1100,519-895-1105,jimw@westmountmoving.com,NAVL,9
Westmount Moving & Warehousing,2397000,2397,2768 A Sheffield Rd.,Ottawa,ON,K1B 3V9,613-742-7555,613-749-4532,ken@westmountmoving.com,NAVL,9
Demenagement Gagnon,2398000,2398,592 Hull Street,Montreal,QC,H9R 3W2,514-366-1232,,info@westmountmoving.com,NAVL,9
Abbotsford Moving & Storage,2399000,2399,2768A Sheffield Road,Ottawa,ON,K1B 3V9,613-836-3493,613-749-4532,ken@westmountmoving.com,NAVL,9
Greater Bay Relocation Services,2404000,,1000 E. Grant Line Road Suite 300,Tracy,CA,95304,209-830-4435,209-830-7402,norm@greaterbaymoving.com,NAVL,9
Scott's Moving And Cartage,2410000,2410,323 Burritt st,Stratford,ON,N5A 0A3,519-273-1432,519-273-7768,sales@scottsmoving.com,NAVL,9
Border Moving & Storage,2434000,2434,9247-92 Avenue,Grande Prairie,AB,T8V 7H2,780-538-1444,780-539-4404,border2@outlook.com,NAVL,9
Tobin's North American,2442000,,119 E. 1st Ave.,Mitchell,SD,57301,605-996-3498,605-996-1809,tobins@mitchelltelecom.net,NAVL,9
Air Van northAmerican,2449000,,3340 S. Denver Way,Boise,ID,83705,208-345-3030,208-345-3813,airvanna@airvan.net,NAVL,9
North American Moving & Storage,2466000,,1801 W. 3rd St.,Davenport,IA,52802,563-324-6667,563-323-4761,nams2466@aol.com,NAVL,9
Capitol North American,2485000,,1780 S. Mojave Rd.,Las Vegas,NV,89104,702-457-5353,702-457-4374,johnd@capitolnorthamerican.com,NAVL,9
Matheson Tfr. Co.,2532000,,Rt 924,Humboldt,PA,18201,570-459-0758,570-714-9902,matheson@epix.net,NAVL,9
"Sterling Moving & Storage, Inc.",2538000,,"93 Stockhouse Rd., Suite B",Bozrah,CT,06334,860-892-6072,860-892-6077,2538@sterlingmail.com,NAVL,9
"Galbraith Van & Storage Co., Inc.",2540000,,241 S. Union,Bakersfield,CA,93307,661-327-5151,661-327-3902,bengalb@arrival.net,NAVL,9
North Bay North American,2548000,,4238 Redwood Hwy. (Northgate),San Rafael,CA,94903,415-479-5515,415-479-5836,nbaymove@pacbell.net,NAVL,9
McWhite's North American,2550000,,7450 2nd St.,Prescott Valley,AZ,86314,928-772-9854,928-772-1032,navl@mcwhites.com,NAVL,9
"Ortlieb Moving & Storage Co., Inc.",2552000,,511 W. Savannah Ave.,Valdosta,GA,31601,229-242-6468,229-244-3696,ortmov@gmail.com,NAVL,9
Ward North American,2558000,,"17275 Green Mountain Rd., Ste. 100",San Antonio,TX,78247,210-655-8623,210-967-5420,charles.morse@wardnorthamerican.com,NAVL,9
Ward North American (hauling code),2559000,,2910 E. White Star Ave.,Anaheim,TX,92806,949-582-0380,,,NAVL,9
"Aadvantage Moving & Storage, Inc.",2572000,,"17275 Green Mountain Rd., Ste. 101",San Antonio,TX,78247,210-655-2719,210-655-0256,kari.schwab@wardnorthAmerican.com,NAVL,9
"A-1 Freeman Relocation Services, Inc.",2600000,,1618 Cornerway Blvd,San Antonio,TX,78219,210-661-1404,210-661-1405,sanantoniocs@a-1freeman.com,NAVL,9
Von Paris Moving & Storage,2604000,,8691 Larkin Road,Savage,MD,20763,410-888-8500,410-888-9062,,NAVL,9
Dimon & Bacorn Co. of Binghamton,2642000,,444 Commerce Rd.,Vestal,NY,13850,607-798-0099,607-798-0117,dbacorninc@stny.rr.com,NAVL,9
Palmer Moving & Storage Co.,2665000,,24660 Dequindre,Warren,MI,48091,586-834-3400,586-834-3414,charb@palmermoving.com,NAVL,9
"Park Transfer & Storage Co., Inc.",2677000,,5959 Knight Avenue,Tuscaloosa,AL,35404,205-345-0311,205-345-0240,info@parktransfer.com,NAVL,9
"Park Transfer & Storage Co., Inc.",2678000,,2525 2nd St. W,Birmingham,AL,35204,205-345-0311,205-345-0240,brian@parktransfer.com,NAVL,9
A-1 Freeman North American,2712000,,2900-C N. Hemlock Circle,Broken Arrow,OK,74012,918-251-2220,918-251-4595,movingtulsa@a-1freeman.com,NAVL,9
Burgess northAmerican,2809000,,300 W. Lincoln,Banning,CA,92220,951-849-4751,951-849-8634,benji@burgessrelocation.com,NAVL,9
"Beltmann Group, Inc.",2837000,,13021 Leffingwell Ave.,Santa Fe Springs,CA,90670,562-293-4500,562-293-4575,beltmann2837@beltmann.com,NAVL,9
VMS Valley Moving & Storage,2838000,2838,2160 Galiano Rd.,Kelowna,BC,V1V 2C6,250-545-2185,,www.vmsmoving.com,NAVL,9
Rent-a-Son,2839000,2839,82 St. Regis Cres North,Toronto,ON,M3J 1Z3,416-913-9021,416-913-1501,dustinkroft@rentason.ca,NAVL,9
Perfect Packers,2840000,2840,1B-3335 North Service Road,Burlington,ON,L7N 3G2,905-319-9821,905-319-1367,jbeale@perfectpackers.com,NAVL,9
All World Moving & Storage,2841000,2841,210 Joseph Zatzman Drive,Dartmouth,NS,B3B 1P4,902-468-2334,902-435-2704,halifax@allworldmoving.com,NAVL,9
Phillips Moving & Storage,2843000,2843,2525 Steeles Ave. West,Toronto,AB,M3J 2P1,416-661-2797,416-661-0013,peter@phillipsmoving.com,NAVL,9
"Excel Moving & Storage, Inc.",2845000,2845,300 Pendant Drive,Mississauga,ON,L5T 2W6,905-364-7779,905-452-8900,sean.horswell@exceltransportation.com,NAVL,9
Demenagement La Capitale,2846000,2846,6674 De Lesplanade,Montreal,QC,H2V 4L5,514-273-3300,514-273-3433,info@capitalemoving.com,NAVL,9
Demenagement La Capitale,2847000,2847,3240 Watt Avenue # 115,Quebec,QC,G1X 4X7,418-948-8898,418-651-0881,,NAVL,9
"O'Mara Moving Systems, Inc.",2848000,,"1422 Packers Ave., Bldg. A",Madison,WI,53704,608-241-2600,608-241-1808,sally.omara@omaramoving.com,NAVL,9
Demenagement La Capitale Saguenay,2849000,2849,805 de Le Caniapiscau,Chicoutimi,QC,G7K 0A8,,418-698-6618,,NAVL,9
Perfect Packers,2850000,2850,6-720 Churchill Drive,Barrie,ON,L4N 8Z5,705-242-3380,,,NAVL,9
Mackie Moving Systems,2853000,,30 Gurholt Drive,Dartmouth,NS,B3B 1J9,902-481-2041,,,NAVL,9
Mackie Moving Systems,2854000,,"14 Veterans Lane, Unit 2",Middleton,NS,B0S 1P0,902-825-6613,,,NAVL,9
Mackie Moving Systems,2855000,,"230 Hodgson Road, Suite 2",Fredericton,NB,E3C 2G4,206-455-2003,,,NAVL,9
"Scarr Moving & Storage, Inc.",2856000,,1353 Dayton St.,Salinas,CA,93901,831-424-2784,831-424-9463,scarr2856@aol.com,NAVL,9
"Crescent Moving and Storage, Ltd.",2930000,0,7866 Express Street,Burnaby,BC,V5A 1T4,604-531-7948,604-299-8872,info@crescentmovingandstorage.com,NAVL,9
"John E. George, Inc.",2959000,,"121 Tri County Drive, Bldg 5",Freedom,PA,15042,724-371-3100,724-371-3199,rgeorge@georgemoving.com,NAVL,9
"Beltmann Group, Inc.",2966000,,"8101 Lenexa Dr., Suite B",Lenexa,KS,66214,913-888-9105,913-888-4308,beltmann2966@beltmann.com,NAVL,9
Guardian Transfer & Storage,2982000,2982,210 Joseph Zatzman Dr.,Dartmouth,NS,B3B 1P4,902-435-2824,902-435-2704,ctrimm@guardiantransfer.com,NAVL,9
Guardian Transfer & Storage,2984000,2984,3 Freeman Street,Middleton,NS,B0S 1P0,902-825-4217,908-825-6261,,NAVL,9
